Community Area Name,Community Area Number,Property Type,Property Name,Address,Zip Code,Phone Number,Management Company,Units,X Coordinate,Y Coordinate,Latitude,Longitude,Location,Historical Wards 2003-2015,Wards,Community Areas,Zip Codes,Census Tracts
Portage Park,15,ARO,4812-15 W. Montrose Apts.,4812-15 W. Montrose Ave.,60641,630-694-6968,@properties,2,,,,,,,,,,
West Englewood,67,Multifamily,New West Englewood Homes,2109 W. 63rd St.,60636,773-434-4929,Interfaith Housing Corp.,12,,,,,,,,,,
Englewood,68,Multifamily,Antioch Homes II,301 W. Marquette Road,60621,773-994-4546,"Universal Management Service, Inc.",69,1175444.8128505,1860492.08380492,41.7725637689,-87.6324193182,"{'latitude': '41.7725637689', 'longitude': '-87.6324193182', 'human_address': '{""address"": """", ""city"": """", ""state"": """", ""zip"": """"}'}",31,32,66,21559,479
Washington Park,40,Senior HUD 202,St. Edmund's Corners,5556 S. Michigan Ave.,60637,773-667-7583,St. Edmund's Redevelopment Corp.,53,1178070.44297855,1867951.67674172,41.7929745219,-87.6225685185,"{'latitude': '41.7929745219', 'longitude': '-87.6225685185', 'human_address': '{""address"": """", ""city"": """", ""state"": """", ""zip"": """"}'}",53,4,7,22260,403
Humboldt Park,23,Multifamily,Nelson Mandela Apts.,526 N. Troy St.,60624,773-227-6332,Bickerdike Apts.,6,1155237.9587949,1903558.99055611,41.8911727354,-87.7053383382,"{'latitude': '41.8911727354', 'longitude': '-87.7053383382', 'human_address': '{""address"": """", ""city"": """", ""state"": """", ""zip"": """"}'}",41,46,24,21184,177
Grand Boulevard,38,Senior,Evans Langley,727 E. 50th Pl,60615,312-368-8610,"Metroplex, Inc.",60,1182079.07958679,1871653.12590291,41.8030397258,-87.6077548852,"{'latitude': '41.8030397258', 'longitude': '-87.6077548852', 'human_address': '{""address"": """", ""city"": """", ""state"": """", ""zip"": """"}'}",1,10,4,21192,165
Uptown,3,Multifamily,Magnolia Court Apts.,4878 N. Magnolia Ave.,60640,773-878-2186,"Park, Inc.",60,1167014.08730626,1932819.27309105,41.9712198343,-87.6612480605,"{'latitude': '41.9712198343', 'longitude': '-87.6612480605', 'human_address': '{""address"": """", ""city"": """", ""state"": """", ""zip"": """"}'}",37,18,31,22616,633
South Shore,43,Multifamily,Jeffrey Towers Apts.,7020 S. Jeffrey Blvd.,60649,872-777-4924,Interfaith Housing Corp.,136,1190721.26319827,1858722.62939985,41.7673529546,-87.5764779584,"{'latitude': '41.7673529546', 'longitude': '-87.5764779584', 'human_address': '{""address"": """", ""city"": """", ""state"": """", ""zip"": """"}'}",32,33,39,22538,381
North Center,5,ARO,The Henry,1819 W. Montrose Ave.,60613,855-443-5287,FLATS Leasing,4,,,,,,,,,,
Near West Side,28,Multifamily,Near West Side Apts.,216 S. Hoyne Ave.,60612,312-738-2280,Baker-Simmons Apartments,84,1162403.56726474,1898857.88946419,41.8781255904,-87.6791541271,"{'latitude': '41.8781255904', 'longitude': '-87.6791541271', 'human_address': '{""address"": """", ""city"": """", ""state"": """", ""zip"": """"}'}",48,46,29,21184,89
Albany Park,14,Senior,Mayfair Commons,4444 W. Lawrence Ave.,60630,773-205-7862,"Metroplex, Inc.",97,1145674.75381776,1931569.97904455,41.9682242321,-87.7397474866,"{'latitude': '41.9682242321', 'longitude': '-87.7397474866', 'human_address': '{""address"": """", ""city"": """", ""state"": """", ""zip"": """"}'}",28,38,14,21869,751
Grand Boulevard,38,Multifamily,Legends South - Savoy Square,4448 S. State St.,60609,773-855-2209,Interstate Realty Management Co.,220,1176982.24643682,1875311.40664701,41.8131949278,-87.6263367998,"{'latitude': '41.8131949278', 'longitude': '-87.6263367998', 'human_address': '{""address"": """", ""city"": """", ""state"": """", ""zip"": """"}'}",12,9,4,14924,219
Uptown,3,ARO,The Synagogue,5029 N. Kenmore Ave.,60640,855-443-5287,FLATS Leasing,4,,,,,,,,,,
West Town,24,Multifamily,Tierra Linda Apts.,1421 N. Artesian Ave.,60622,773-276-5338,LUCHA,3,,,,,,,,,,
Logan Square,22,Multifamily,Zapata Apts.,1955 N. St. Louis Ave.,60647,773-227-6332,Bickerdike Apartments,3,1152977.19630528,1913047.5159342,41.9172552391,-87.7133892335,"{'latitude': '41.9172552391', 'longitude': '-87.7133892335', 'human_address': '{""address"": """", ""city"": """", ""state"": """", ""zip"": """"}'}",15,49,23,22535,387
Humboldt Park,23,Multifamily,Madres Unidas (scattered sites),3541 W. North Ave.,60647,773-276-5338 ext. 225,LUCHA,80,1152271.52454631,1910359.24074225,41.9098923382,-87.7160529794,"{'latitude': '41.9098923382', 'longitude': '-87.7160529794', 'human_address': '{""address"": """", ""city"": """", ""state"": """", ""zip"": """"}'}",10,49,24,22535,422
Near North Side,8,Supportive,Carling Hotel,1512 N. LaSalle St.,60610,312-421-1170,Interstate Realty Management Co.,80,1174812.44592983,1910422.21333507,41.9095901427,-87.6332454838,"{'latitude': '41.9095901427', 'longitude': '-87.6332454838', 'human_address': '{""address"": """", ""city"": """", ""state"": """", ""zip"": """"}'}",51,46,37,14926,290
North Lawndale,29,Multifamily,Park Douglas,1256-60 S. Washtenaw Ave.,60608,773-893-4800,Interstate Realty Management Co.,1,1158530.36505902,1893988.19316958,41.8648427949,-87.6935089238,"{'latitude': '41.8648427949', 'longitude': '-87.6935089238', 'human_address': '{""address"": """", ""city"": """", ""state"": """", ""zip"": """"}'}",11,23,30,14920,16
Pullman,50,Multifamily,Pullman Wheelworks,901 E. 104th St.,60628,773-785-1300,Mercy Housing,210,1184202.93718311,1836150.18315833,41.7055665942,-87.6010740303,"{'latitude': '41.7055665942', 'longitude': '-87.6010740303', 'human_address': '{""address"": """", ""city"": """", ""state"": """", ""zip"": """"}'}",30,43,47,21861,254
Auburn Gresham,71,Senior HUD 202,St. Sabina Elder Village Apts.,1222 W. 79th St.,60620,773-994-7850,Catholic Charities Housing Devp.,80,1169422.92983148,1852437.46830811,41.7505934139,-87.6547267546,"{'latitude': '41.7505934139', 'longitude': '-87.6547267546', 'human_address': '{""address"": """", ""city"": """", ""state"": """", ""zip"": """"}'}",17,31,70,21554,575
Humboldt Park,23,Multifamily,Rosa Parks Apts.,649 N. Sawyer Ave.,60624,773-227-6332,Bickerdike Apts.,6,1154625.79251378,1904362.10178436,41.8933888222,-87.707565028,"{'latitude': '41.8933888222', 'longitude': '-87.707565028', 'human_address': '{""address"": """", ""city"": """", ""state"": """", ""zip"": """"}'}",41,46,24,21572,177
New City,61,Multifamily,Casa Hidalgo,4600 S. Wood St.,60609,312-248-8355,The Resurrection Project,10,1165081.39997643,1874156.26076116,41.8102854563,-87.6700222697,"{'latitude': '41.8102854563', 'longitude': '-87.6700222697', 'human_address': '{""address"": """", ""city"": """", ""state"": """", ""zip"": """"}'}",53,3,59,14924,706
West Lawn,65,Seniors,Senior Suites of Midway Village,6800 S. Keating Ave.,60629,888-339-2315,Senior Lifestyle Corp.,89,1145974.07363705,1859144.92352981,41.7694752347,-87.740486055,"{'latitude': '41.7694752347', 'longitude': '-87.740486055', 'human_address': '{""address"": """", ""city"": """", ""state"": """", ""zip"": """"}'}",23,15,63,4300,318
North Lawndale,29,Multifamily,Park Douglas,1303-15 S. Fairfield Ave.,60608,773-893-4800,Interstate Realty Management Co.,31,1158279.0515851,1893857.02190438,41.8644879836,-87.6944350832,"{'latitude': '41.8644879836', 'longitude': '-87.6944350832', 'human_address': '{""address"": """", ""city"": """", ""state"": """", ""zip"": """"}'}",11,23,30,14920,16
Lower West Side,31,Multifamily,Casa Queretaro,2012 W. 17th St.,60608,312-666-1323,The Resurrection Project,45,1163154.26148667,1891768.77987539,41.8586566959,-87.6765968934,"{'latitude': '41.8586566959', 'longitude': '-87.6765968934', 'human_address': '{""address"": """", ""city"": """", ""state"": """", ""zip"": """"}'}",8,26,33,14920,366
Austin,25,Multifamily,Pine Central,557 N. Pine Ave.,60644,773-568-1020,NHS Redevelopment Corp.,78,1139471.89642909,1903210.83494725,41.8905193977,-87.7632486365,"{'latitude': '41.8905193977', 'longitude': '-87.7632486365', 'human_address': '{""address"": """", ""city"": """", ""state"": """", ""zip"": """"}'}",4,45,26,22216,673
West Ridge,2,Senior,Lincoln Village Senior Apts.,6057 N. Lincoln Ave.,60659,773-338-5900,Perlmark Realty Management,99,1153825.5467495,1940243.37931565,41.9918656495,-87.7095450826,"{'latitude': '41.9918656495', 'longitude': '-87.7095450826', 'human_address': '{""address"": """", ""city"": """", ""state"": """", ""zip"": """"}'}",42,27,20,4450,30
West Ridge,2,Senior,West Ridge Senior Apts.,6142 N. California Ave.,60659,773-381-7400,West Ridge Senior Corp.,117,1156512.51035811,1940837.41077017,41.9934415657,-87.6996454249,"{'latitude': '41.9934415657', 'longitude': '-87.6996454249', 'human_address': '{""address"": """", ""city"": """", ""state"": """", ""zip"": """"}'}",42,27,20,4450,30
East Garfield Park,27,Multifamily,Homan Square Apartments Phase IV,908 S. Central Park Ave.,60624,773-722-7320,Realty & Mortgage Co.,108,1152480.60980869,1895702.73751894,41.8696692769,-87.7156724506,"{'latitude': '41.8696692769', 'longitude': '-87.7156724506', 'human_address': '{""address"": """", ""city"": """", ""state"": """", ""zip"": """"}'}",36,14,30,21572,98
Humboldt Park,23,Multifamily,Nelson Mandela Apts.,3145 W. Franklin Blvd.,60624,773-227-6332,Bickerdike Apts.,6,1155134.69329312,1903119.26036969,41.8899681469,-87.7057293959,"{'latitude': '41.8899681469', 'longitude': '-87.7057293959', 'human_address': '{""address"": """", ""city"": """", ""state"": """", ""zip"": """"}'}",41,46,24,21184,177
Uptown,3,Multifamily,Sunnyside Kenmore Apts.,4130 N. Kenmore Ave.,60640,773-769-3116,"Metroplex, Inc.",13,1168380.03047023,1927860.19400911,41.9575824413,-87.6563694357,"{'latitude': '41.9575824413', 'longitude': '-87.6563694357', 'human_address': '{""address"": """", ""city"": """", ""state"": """", ""zip"": """"}'}",37,39,31,21186,241
Kenwood,39,Multifamily,Drexel Preservation,837 E. 47th St.,60653,773-624-4901,MLG Management,39,1182801.3254214,1873991.94765,41.8094408765,-87.6050334227,"{'latitude': '41.8094408765', 'longitude': '-87.6050334227', 'human_address': '{""address"": """", ""city"": """", ""state"": """", ""zip"": """"}'}",1,10,5,21192,461
Logan Square,22,ARO,MiCA,2733 W. Belden Ave.,60647,312-702-2519,2293NMA LLC,22,1157492.64258372,1915110.09376637,41.922824344,-87.6967431262,"{'latitude': '41.922824344', 'longitude': '-87.6967431262', 'human_address': '{""address"": """", ""city"": """", ""state"": """", ""zip"": """"}'}",24,41,23,22535,294
West Town,24,ARO,East Village Lofts,1100 N. Ashland Ave.,60622,773-278-8078,Wicker Park Apartments Inc.,1,1165486.10482463,1907421.22424563,41.9015589973,-87.667591842,"{'latitude': '41.9015589973', 'longitude': '-87.667591842', 'human_address': '{""address"": """", ""city"": """", ""state"": """", ""zip"": """"}'}",24,41,25,21560,518
Logan Square,22,Multifamily,Tierra Linda Apts.,3572 W. Palmer St.,60647,773-276-5338,LUCHA,3,,,,,,,,,,
Douglas,35,Multifamily,Park Boulevard IB,3506 S. State St.,60609,773-548-8792,"Urban Property Advisors, LLC",54,1176805.95135337,1881719.10781436,41.8307821806,-87.6267901762,"{'latitude': '41.8307821806', 'longitude': '-87.6267901762', 'human_address': '{""address"": """", ""city"": """", ""state"": """", ""zip"": """"}'}",12,9,1,14924,353
Woodlawn,42,Multifamily,65th Street Apts.,6400 S. Maryland Ave.,60637,773-684-2056,"Urban Property Advisors, LLC",15,1182961.60842189,1862758.25525382,41.7786109444,-87.6047947203,"{'latitude': '41.7786109444', 'longitude': '-87.6047947203', 'human_address': '{""address"": """", ""city"": """", ""state"": """", ""zip"": """"}'}",53,4,9,22260,347
Belmont Cragin,19,ARO,2917-39 N. Central,2917-39 N. Central Ave.,60634,708-867-3799,Zitella Development,3,1138569.74244338,1918921.6328086,41.9336480472,-87.7661803002,"{'latitude': '41.9336480472', 'longitude': '-87.7661803002', 'human_address': '{""address"": """", ""city"": """", ""state"": """", ""zip"": """"}'}",7,17,19,22254,303
Oakland,36,Multifamily,Oakwood Shores Senior Apts.,3750 S. Cottage Grove Ave.,60653,773-373-1300,The Community Builders,76,1181862.3293714,1880153.55134302,41.8263705668,-87.6082867641,"{'latitude': '41.8263705668', 'longitude': '-87.6082867641', 'human_address': '{""address"": """", ""city"": """", ""state"": """", ""zip"": """"}'}",1,10,2,4301,582
Oakland,36,Multifamily,Lakefront Phase II,1125 E. Bowen Ave.,60653,773-548-8795,"Urban Property Advisors, LLC",3,1184432.11524197,1877384.38157709,41.8187118792,-87.5989457091,"{'latitude': '41.8187118792', 'longitude': '-87.5989457091', 'human_address': '{""address"": """", ""city"": """", ""state"": """", ""zip"": """"}'}",1,10,2,4301,220
Roseland,49,Inter-generational,Roseland Village Grand-Family Apts.,63 E. 104th St.,60628,773-468-1901,Mercy Housing,10,1178767.71266187,1835996.43290175,41.7052697846,-87.6209818377,"{'latitude': '41.7052697846', 'longitude': '-87.6209818377', 'human_address': '{""address"": """", ""city"": """", ""state"": """", ""zip"": """"}'}",30,43,45,21861,236
Douglas,35,Multifamily,Park Boulevard IA,3845 S. State St.,60609,773-548-8792,"Urban Property Advisors, LLC",80,1176967.11972168,1879322.16764571,41.8242011421,-87.6262712265,"{'latitude': '41.8242011421', 'longitude': '-87.6262712265', 'human_address': '{""address"": """", ""city"": """", ""state"": """", ""zip"": """"}'}",12,9,1,14924,446
Belmont Cragin,19,Senior,Senior Suites of Belmont-Cragin,6045 W. Grand Ave.,60639,773-237-1333,Senior Lifestyle Corp.,86,1135526.17355757,1914216.38283983,41.9207910105,-87.7774775508,"{'latitude': '41.9207910105', 'longitude': '-87.7774775508', 'human_address': '{""address"": """", ""city"": """", ""state"": """", ""zip"": """"}'}",52,44,19,22615,77
North Lawndale,29,Multifamily,Lawndale Restoration II Apts. (scattered sites),10 N. Hamlin Ave.,60613,312-337-5339,Holsten Management Corp.,170,1151024.34171912,1899855.05640512,41.8810923305,-87.7209100899,"{'latitude': '41.8810923305', 'longitude': '-87.7209100899', 'human_address': '{""address"": """", ""city"": """", ""state"": """", ""zip"": """"}'}",11,23,27,21572,658
West Town,24,Multifamily,Paseo Boricua Apts.,1154 N. Campbell St.,60622,312-602-6500,Hispanic Housing Dev. Corp.,61,1159482.29255128,1907856.10472627,41.902878079,-87.6896325219,"{'latitude': '41.902878079', 'longitude': '-87.6896325219', 'human_address': '{""address"": """", ""city"": """", ""state"": """", ""zip"": """"}'}",10,49,25,21560,542
East Garfield Park,27,Multifamily,Ike Sims Village,3333 W. Maypole Ave.,60624,773-638-1818,Village Green Management Co.,200,1153978.22884647,1900741.03511514,41.8834651917,-87.7100399091,"{'latitude': '41.8834651917', 'longitude': '-87.7100399091', 'human_address': '{""address"": """", ""city"": """", ""state"": """", ""zip"": """"}'}",11,23,28,21572,176
Austin,25,Multifamily,Rebecca Walker Complex,126 S. Central Ave.,60644,773-261-1550,Affordable Property Management Specialist,40,1139038.20773836,1898825.97446503,41.8784946733,-87.7649480305,"{'latitude': '41.8784946733', 'longitude': '-87.7649480305', 'human_address': '{""address"": """", ""city"": """", ""state"": """", ""zip"": """"}'}",52,7,26,22216,67
Logan Square,22,Multifamily,Tierra Linda Apts.,1808-10 N. Kedzie Ave.,60647,773-276-5338,LUCHA,3,,,,,,,,,,
West Englewood,67,Multifamily,Clara Temple Hampton Residence,1656 W. 63rd St.,60636,773-778-2884,West Englewood Dev. Org.,71,1166121.34522665,1862956.68606977,41.779530386,-87.6665265092,"{'latitude': '41.779530386', 'longitude': '-87.6665265092', 'human_address': '{""address"": """", ""city"": """", ""state"": """", ""zip"": """"}'}",44,3,65,22257,276
Humboldt Park,23,Supportive Housing,Sanctuary Place,642 N. Kedzie Ave.,60612,773-265-0983,Interfaith Housing Corp.,84,1154880.60347614,1904286.63927462,41.8931766425,-87.7066312185,"{'latitude': '41.8931766425', 'longitude': '-87.7066312185', 'human_address': '{""address"": """", ""city"": """", ""state"": """", ""zip"": """"}'}",41,46,24,21184,177
Humboldt Park,23,Multifamily,Rosa Parks Apts.,541 N. Homan Ave.,60624,773-227-6332,Bickerdike Apts.,27,1153649.60311098,1903659.52038047,41.891480351,-87.7111689514,"{'latitude': '41.891480351', 'longitude': '-87.7111689514', 'human_address': '{""address"": """", ""city"": """", ""state"": """", ""zip"": """"}'}",41,46,24,21572,177
Uptown,3,Multifamily,850 Eastwood,850 W. Eastwood Ave.,60640,773-275-6877,Mercy Housing,69,1169619.11318854,1931130.18592414,41.9665284532,-87.6517185639,"{'latitude': '41.9665284532', 'longitude': '-87.6517185639', 'human_address': '{""address"": """", ""city"": """", ""state"": """", ""zip"": """"}'}",37,39,31,22616,19
Washington Park,40,People with Disabilities,Urbanite Apartments,5441 S. Michigan Ave.,60615,773-285-3341,Assoc. of Chicago Day School,85,1178127.35787278,1868790.59534751,41.7952753031,-87.6223343775,"{'latitude': '41.7952753031', 'longitude': '-87.6223343775', 'human_address': '{""address"": """", ""city"": """", ""state"": """", ""zip"": """"}'}",12,9,7,21192,401
Lower West Side,31,Multifamily,Casa Tabasco,2014 S. Racine Ave.,60608,312-850-1935,The Resurrection Project,45,1168646.29658184,1890365.99095515,41.8546902787,-87.6564782084,"{'latitude': '41.8546902787', 'longitude': '-87.6564782084', 'human_address': '{""address"": """", ""city"": """", ""state"": """", ""zip"": """"}'}",8,26,33,14920,365
Lakeview,6,ARO,Viridian on Sheridan,734 W. Sheridan Rd.,60613,847-250-4900,rmk Management,2,1170305.66180762,1926158.03105325,41.9528696876,-87.6493401794,"{'latitude': '41.9528696876', 'longitude': '-87.6493401794', 'human_address': '{""address"": """", ""city"": """", ""state"": """", ""zip"": """"}'}",37,39,57,21186,690
Loop,32,Multifamily,Randolph Tower City Apts. (studios only),188 W. Randolph St.,60601,312-291-8679,Village Green Management Co.,16,1174747.57210376,1901307.25243196,41.884579663,-87.6337568335,"{'latitude': '41.884579663', 'longitude': '-87.6337568335', 'human_address': '{""address"": """", ""city"": """", ""state"": """", ""zip"": """"}'}",22,36,38,14309,92
Austin,25,Supportive/Teenage Moms,Home for New Moms,5327 W. Chicago Ave.,60651,773-610-7696,"New Moms, Inc.",40,1140544.65155185,1904774.78125207,41.8947914314,-87.7592704828,"{'latitude': '41.8947914314', 'longitude': '-87.7592704828', 'human_address': '{""address"": """", ""city"": """", ""state"": """", ""zip"": """"}'}",4,45,26,22216,673
Woodlawn,42,Senior,Butler Apts.,6146 S. Kenwood Ave.,60637,773-955-9290,Woodlawn Comm. Dev. Corp.,17,1186094.25881798,1864312.84273055,41.7828034603,-87.5932613147,"{'latitude': '41.7828034603', 'longitude': '-87.5932613147', 'human_address': '{""address"": """", ""city"": """", ""state"": """", ""zip"": """"}'}",53,4,9,22260,426
Douglas,35,Multifamily,Park Boulevard IIB,3700 S. Dearborn St.,60609,773-548-8792,"Urban Property Advisors, LLC",72,1176529.6000626,1880409.30941706,41.8271942191,-87.6278435793,"{'latitude': '41.8271942191', 'longitude': '-87.6278435793', 'human_address': '{""address"": """", ""city"": """", ""state"": """", ""zip"": """"}'}",12,9,1,14924,353
Grand Boulevard,38,Artist Live/Work Space,Bronzeville Artists Lofts,436 E. 47th St.,60653,773-324-1745,Revere Properties,16,1180131.92552507,1873998.51950452,41.8095205688,-87.614824016,"{'latitude': '41.8095205688', 'longitude': '-87.614824016', 'human_address': '{""address"": """", ""city"": """", ""state"": """", ""zip"": """"}'}",12,9,4,4301,447
North Park,13,Senior,North Park Village Apts.,5801 N. Pulaski Road,60646,773-478-6890,Elderly Housing Devp. & Operations Corp.,137,1148723.50103629,1938044.23656645,41.9859315142,-87.72836921,"{'latitude': '41.9859315142', 'longitude': '-87.72836921', 'human_address': '{""address"": """", ""city"": """", ""state"": """", ""zip"": """"}'}",28,38,13,22532,747
Woodlawn,42,Multifamily,65th Street Apts.,6522 S. Ingleside Ave.,60637,773-684-2056,"Urban Property Advisors, LLC",18,1183642.02930266,1861850.34405471,41.7761037074,-87.6023285746,"{'latitude': '41.7761037074', 'longitude': '-87.6023285746', 'human_address': '{""address"": """", ""city"": """", ""state"": """", ""zip"": """"}'}",53,4,9,22260,347
South Deering,51,Senior,Porta Coeli Residence,2260 E. 99th St.,60617,773-374-2470,Catholic Charities,86,1193007.252136,1839809.5249601,41.7153982408,-87.5687149518,"{'latitude': '41.7153982408', 'longitude': '-87.5687149518', 'human_address': '{""address"": """", ""city"": """", ""state"": """", ""zip"": """"}'}",43,47,48,21202,252
Kenwood,39,Multifamily,Jazz on the Boulevard (scattered sites),4657 S. Drexel Blvd,60653,312-660-1300,Heartland Housing,81,1183149.45516709,1874094.4100914,41.8097139386,-87.6037533683,"{'latitude': '41.8097139386', 'longitude': '-87.6037533683', 'human_address': '{""address"": """", ""city"": """", ""state"": """", ""zip"": """"}'}",1,10,5,4301,398
Near West Side,28,Multifamily,Westhaven Park Phase IIB,110 N. Wood St.,60612,312-491-1114,Interstate Realty Management Co.,176,1164349.32531246,1900851.12015089,41.8835542602,-87.6719533672,"{'latitude': '41.8835542602', 'longitude': '-87.6719533672', 'human_address': '{""address"": """", ""city"": """", ""state"": """", ""zip"": """"}'}",41,46,29,21184,579
Oakland,36,Multifamily,Lake Park Crescent,1061 E. 41st Place,60653,773-268-0200,"Draper and Kramer, Inc.",32,1184161.7757877,1877771.78885836,41.8197812878,-87.5999252673,"{'latitude': '41.8197812878', 'longitude': '-87.5999252673', 'human_address': '{""address"": """", ""city"": """", ""state"": """", ""zip"": """"}'}",1,10,2,4301,220
East Garfield Park,27,Multifamily,Homan Square Apartments Phase V,3607 W. Polk St.,60624,773-722-7320,Realty & Mortgage Co.,42,1152413.69277322,1896087.18056577,41.8707255523,-87.7159079717,"{'latitude': '41.8707255523', 'longitude': '-87.7159079717', 'human_address': '{""address"": """", ""city"": """", ""state"": """", ""zip"": """"}'}",36,14,28,21572,704
Roseland,49,Multifamily,Roseland Ridge Apts.,10513 S. Michigan Ave.,60628,773-341-3158,NHS Redevelopment Corp.,51,1178893.69861194,1835198.53356157,41.7030773785,-87.6205446771,"{'latitude': '41.7030773785', 'longitude': '-87.6205446771', 'human_address': '{""address"": """", ""city"": """", ""state"": """", ""zip"": """"}'}",30,43,45,21861,236
Garfield Ridge,56,Senior,Senior Suites of Garfield Ridge,5839 S. Harlem Ave.,60638,773-229-1533,Senior Lifestyle Corp.,87,1129403.74488697,1864822.91189786,41.7853541249,-87.8010979955,"{'latitude': '41.7853541249', 'longitude': '-87.8010979955', 'human_address': '{""address"": """", ""city"": """", ""state"": """", ""zip"": """"}'}",35,6,53,22268,589
North Lawndale,29,Multifamily,Dicksons Estates Apts.,1129 S. Sacramento Ave.,60612,773-638-0386,Dickson Estates Apartments,42,1156574.00873721,1894894.5102467,41.8673696101,-87.7006662254,"{'latitude': '41.8673696101', 'longitude': '-87.7006662254', 'human_address': '{""address"": """", ""city"": """", ""state"": """", ""zip"": """"}'}",11,23,30,21184,35
Bridgeport,60,Senior,Senior Suites of Bridgeport,2825 S. Halsted St.,60608,312-326-0333,Senior Lifestyle Corp.,85,1171468.4089095,1886029.52776082,41.8427291512,-87.6462472701,"{'latitude': '41.8427291512', 'longitude': '-87.6462472701', 'human_address': '{""address"": """", ""city"": """", ""state"": """", ""zip"": """"}'}",26,48,58,14920,688
Near North Side,8,Multifamily,Clybourn 1200,1200 N. Clybourn Ave.,60622,312-477-7442,Interstate Realty Management Co.,52,1173039.7455326,1908293.94552508,41.9037895847,-87.6398207738,"{'latitude': '41.9037895847', 'longitude': '-87.6398207738', 'human_address': '{""address"": """", ""city"": """", ""state"": """", ""zip"": """"}'}",41,46,37,14926,309
Lincoln Square,4,ARO,The Westner,4618 N. Western Ave.,60625,773-975-7234,Kass Management,2,1159495.40689585,1930676.17560086,41.9654975932,-87.6889543312,"{'latitude': '41.9654975932', 'longitude': '-87.6889543312', 'human_address': '{""address"": """", ""city"": """", ""state"": """", ""zip"": """"}'}",13,18,6,21849,666
Logan Square,22,Multifamily,Tierra Linda Apts.,1812 N. Drake Ave.,60647,773-276-5338,LUCHA,3,,,,,,,,,,
South Chicago,46,Senior,Victory Center of South Chicago,3251 E. 92nd St.,60617,773-449-2600,Pathway Senior Living,60,1199523.08542014,1844538.45637883,41.7282135464,-87.5446927939,"{'latitude': '41.7282135464', 'longitude': '-87.5446927939', 'human_address': '{""address"": """", ""city"": """", ""state"": """", ""zip"": """"}'}",47,47,42,21202,510
West Garfield Park,26,Supportive Housing,The Rebecca Johnson Apts.,2822 W. Jackson Blvd.,60612,773-638-6393,Deborah's Place Ltd.,52,1157527.97541372,1898606.33636721,41.8775358858,-87.6970630483,"{'latitude': '41.8775358858', 'longitude': '-87.6970630483', 'human_address': '{""address"": """", ""city"": """", ""state"": """", ""zip"": """"}'}",48,46,28,21184,51
Near North Side,8,Multifamily,North Town Village II,1311 N. Halsted St.,60642,312-944-9488,Holsten Real Estate Dev. Corp.,112,1170813.06191015,1908876.86190342,41.9054382467,-87.6479827434,"{'latitude': '41.9054382467', 'longitude': '-87.6479827434', 'human_address': '{""address"": """", ""city"": """", ""state"": """", ""zip"": """"}'}",41,46,37,22620,108
North Lawndale,29,Multifamily,Lazarus Apartments,1859 S. Pulaski Ave.,60623,773-762-3389,Lawndale Christian Residential Svcs.,26,1150056.06296146,1890463.50315966,41.8553397217,-87.7247100763,"{'latitude': '41.8553397217', 'longitude': '-87.7247100763', 'human_address': '{""address"": """", ""city"": """", ""state"": """", ""zip"": """"}'}",36,14,30,21569,752
Grand Boulevard,38,Multifamily,Rosenwald Courts Apts.,4642 S. Michigan Ave.,60653,773-819-2267,Mercy Housing,239,1177902.20501091,1874091.16115677,41.809825649,-87.6229993768,"{'latitude': '41.809825649', 'longitude': '-87.6229993768', 'human_address': '{""address"": """", ""city"": """", ""state"": """", ""zip"": """"}'}",12,9,4,4301,354
Near West Side,28,Supportive,Lake Street Studios,727 W. Lake St.,60661,312-274-8200,Interfaith Housing Corp.,61,1171177.97410367,1901637.39545107,41.885564701,-87.6468550832,"{'latitude': '41.885564701', 'longitude': '-87.6468550832', 'human_address': '{""address"": """", ""city"": """", ""state"": """", ""zip"": """"}'}",41,46,29,4452,784
Humboldt Park,23,Multifamily,Rosa Parks Apts.,601 N. Drake Ave,60624,773-227-6332,Bickerdike Apts.,6,1152648.97806034,1903805.8046822,41.8919016207,-87.714839929,"{'latitude': '41.8919016207', 'longitude': '-87.714839929', 'human_address': '{""address"": """", ""city"": """", ""state"": """", ""zip"": """"}'}",41,46,24,21572,584
Uptown,3,ARO,4801 N. Ravenswood Ave.,4801 N. Ravenswood Ave.,60640,773-929-7050,Hayes Properties Inc.,4,1163544.41432323,1931973.68843896,41.9689734978,-87.6740303236,"{'latitude': '41.9689734978', 'longitude': '-87.6740303236', 'human_address': '{""address"": """", ""city"": """", ""state"": """", ""zip"": """"}'}",13,18,31,22616,610
Grand Boulevard,38,Multifamily,Paul G. Stewart Phase V,400 E. 41st St.,60653,773-924-2100,Paul G. Stewart Assoc.,20,1179638.24834182,1877940.68309984,41.8203495003,-87.6165141095,"{'latitude': '41.8203495003', 'longitude': '-87.6165141095', 'human_address': '{""address"": """", ""city"": """", ""state"": """", ""zip"": """"}'}",12,9,4,4301,625
Uptown,3,ARO,Upshore Chapter,4555 N. Sheridan Road,60640,312.229.6446,33 Realty,7,,,,,,,,,,
Hyde Park,41,ARO,5432-44 S. Woodlawn,5432 S. Woodlawn Ave.,60615,312-480-0933,Chicago Apartment Finders,10,1185102.56133472,1869464.41313419,41.7969631559,-87.5967353133,"{'latitude': '41.7969631559', 'longitude': '-87.5967353133', 'human_address': '{""address"": """", ""city"": """", ""state"": """", ""zip"": """"}'}",1,33,8,21192,441
West Town,24,ARO,1611 West Division,1611 W. Division St.,60622,773-661-5500,M. Fishman & Co.,10,1165376.18806269,1908029.50476035,41.9032305014,-87.667978248,"{'latitude': '41.9032305014', 'longitude': '-87.667978248', 'human_address': '{""address"": """", ""city"": """", ""state"": """", ""zip"": """"}'}",24,41,25,21560,518
North Lawndale,29,Multifamily,Park Douglas,2652 W. 12th Pl,60608,773-893-4800,Interstate Realty Management Co.,4,1158622.39846527,1894325.45819992,41.8657664016,-87.6931618352,"{'latitude': '41.8657664016', 'longitude': '-87.6931618352', 'human_address': '{""address"": """", ""city"": """", ""state"": """", ""zip"": """"}'}",11,23,30,14920,16
East Garfield Park,27,Multifamily,Liberty Square Apts.,705-23 S. Independence Ave.,60624,773-538-3800,Bonheur Realty Services Corp.,66,1151407.46142205,1896705.239794,41.8724413776,-87.7195859945,"{'latitude': '41.8724413776', 'longitude': '-87.7195859945', 'human_address': '{""address"": """", ""city"": """", ""state"": """", ""zip"": """"}'}",36,14,28,21572,704
Near South Side,33,Supportive Housing,The Studios,1801 S. Wabash St.,60616,312-326-5200,East Lake Management Co.,96,1177086.69778324,1891564.72019444,41.857792921,-87.6254623688,"{'latitude': '41.857792921', 'longitude': '-87.6254623688', 'human_address': '{""address"": """", ""city"": """", ""state"": """", ""zip"": """"}'}",12,9,34,21194,374
Oakland,36,Multifamily,Lakefront Phase II,1106 E. 42nd Pl,60653,773-548-8795,"Urban Property Advisors, LLC",3,1184320.23695784,1877174.69935557,41.8181391197,-87.5993626833,"{'latitude': '41.8181391197', 'longitude': '-87.5993626833', 'human_address': '{""address"": """", ""city"": """", ""state"": """", ""zip"": """"}'}",1,10,2,4301,220
Humboldt Park,23,Multifamily,Nelson Mandela Apts.,3500 W. Ohio St.,60624,773-227-6332,Bickerdike Apts.,6,1152924.34344808,1903817.94850233,41.8919294934,-87.7138283059,"{'latitude': '41.8919294934', 'longitude': '-87.7138283059', 'human_address': '{""address"": """", ""city"": """", ""state"": """", ""zip"": """"}'}",41,46,24,21572,584
West Town,24,Multifamily,Borinquen Bella Apts.,"1318,1456 N. Rockwell Ave.",60622,773-276-5338,LUCHA,24,1158786.70432399,1908791.0712498,41.905457998,-87.6921618816,"{'latitude': '41.905457998', 'longitude': '-87.6921618816', 'human_address': '{""address"": """", ""city"": """", ""state"": """", ""zip"": """"}'}",10,49,25,21560,543
Grand Boulevard,38,Multifamily,Legends South - Mahalia Place,116 E. 43rd St.,60653,773-285-9500,Interstate Realty Management Co.,110,1178081.87526608,1876584.15614825,41.816662565,-87.6222647175,"{'latitude': '41.816662565', 'longitude': '-87.6222647175', 'human_address': '{""address"": """", ""city"": """", ""state"": """", ""zip"": """"}'}",12,9,4,4301,163
Humboldt Park,23,Multifamily,Nelson Mandela Apts.,614 N. Spaulding Ave.,60624,773-227-6332,Bickerdike Apts.,6,1154224.5417618,1903987.91967607,41.8923700513,-87.7090486845,"{'latitude': '41.8923700513', 'longitude': '-87.7090486845', 'human_address': '{""address"": """", ""city"": """", ""state"": """", ""zip"": """"}'}",41,46,24,21572,177
Woodlawn,42,Multifamily,Woodlawn-Michigan Development,6446 S. Kenwood Ave.,60637,312-226-2200,Wolcott Real Property LLC,33,1186141.36609384,1862376.5606601,41.7774890264,-87.5931497136,"{'latitude': '41.7774890264', 'longitude': '-87.5931497136', 'human_address': '{""address"": """", ""city"": """", ""state"": """", ""zip"": """"}'}",53,4,9,22260,27
Humboldt Park,23,Senior,LUCHA Affordable Units,3541 W. North Ave.,60647,312-276-5338,LUCHA,69,1152271.52454631,1910359.24074225,41.9098923382,-87.7160529794,"{'latitude': '41.9098923382', 'longitude': '-87.7160529794', 'human_address': '{""address"": """", ""city"": """", ""state"": """", ""zip"": """"}'}",10,49,24,22535,422
Near West Side,28,ARO,Milieu Apts.,205 S. Peoria St.,60607,312-983-7152,White Oak Realty Partners,7,,,,,,,,,,
Albany Park,14,Senior,Senior Suites of Ravenswood Manor,2800 W. Montrose Ave.,60618,773-509-9333,Senior Lifestyle Corp.,80,1156898.51394538,1929148.46097262,41.9613586525,-87.6985441744,"{'latitude': '41.9613586525', 'longitude': '-87.6985441744', 'human_address': '{""address"": """", ""city"": """", ""state"": """", ""zip"": """"}'}",2,20,14,21538,258
North Lawndale,29,65+/Supportive,Montclare Sr. Residences SLF of Lawndale,4339-47 W. 18th Pl,60623,773-277-0288,Montclare Supportive Living,120,1147554.65735596,1890603.26432132,41.8557715313,-87.7338879,"{'latitude': '41.8557715313', 'longitude': '-87.7338879', 'human_address': '{""address"": """", ""city"": """", ""state"": """", ""zip"": """"}'}",36,14,30,21569,753
Rogers Park,1,Senior,Morse Senior Apts.,6928 N. Wayne Ave.,60626,312-602-6207,Morse Urban Dev.,44,1165843.89836178,1946058.5134415,42.0075737709,-87.6651711448,"{'latitude': '42.0075737709', 'longitude': '-87.6651711448', 'human_address': '{""address"": """", ""city"": """", ""state"": """", ""zip"": """"}'}",3,5,10,21853,66
Englewood,68,Supportive/Veterans,Hope Manor II Apts.,6002 S. Halsted St.,60621,773-874-3610,Voluinteers of America Illinois,73,1171959.56514578,1864993.89431384,41.7849944939,-87.6450631449,"{'latitude': '41.7849944939', 'longitude': '-87.6450631449', 'human_address': '{""address"": """", ""city"": """", ""state"": """", ""zip"": """"}'}",19,2,66,21559,22
Montclare,18,ARO,2931-57 N. Harlem LLC,2931-57 N. Harlem Ave.,60707,708-867-3799,Zitella Development,5,1127615.0334749,1918797.88631997,41.9335002731,-87.8064419298,"{'latitude': '41.9335002731', 'longitude': '-87.8064419298', 'human_address': '{""address"": """", ""city"": """", ""state"": """", ""zip"": """"}'}",39,7,18,4454,397
Oakland,36,Multifamily,Lakefront Phase II,1140 E. 42nd Pl,60653,773-548-8795,"Urban Property Advisors, LLC",6,1184665.37978163,1877176.16214584,41.8181350367,-87.598096559,"{'latitude': '41.8181350367', 'longitude': '-87.598096559', 'human_address': '{""address"": """", ""city"": """", ""state"": """", ""zip"": """"}'}",1,10,2,4301,220
Near West Side,28,Multifamily,Newberry Park Apts.,1355 S. Blue Island Ave.,60608,312-563-0099,AIMCO,124,1168817.27786868,1893757.8411594,41.8639940988,-87.6557523872,"{'latitude': '41.8639940988', 'longitude': '-87.6557523872', 'human_address': '{""address"": """", ""city"": """", ""state"": """", ""zip"": """"}'}",48,26,29,14920,760
Auburn Gresham,71,Senior,Senior Suites of Auburn-Gresham,1050 W. 79th St.,60620,773-723-0333,Senior Lifestyle Corp.,85,1170460.90053702,1852465.79546195,41.7506486193,-87.6509223206,"{'latitude': '41.7506486193', 'longitude': '-87.6509223206', 'human_address': '{""address"": """", ""city"": """", ""state"": """", ""zip"": """"}'}",17,31,70,21554,487
North Center,5,Senior,North Center Senior Apts.,2324 W. Irving Park Road,60618,773-478-8900,"Metroplex, Inc.",60,1160064.90058082,1926543.18083148,41.9541446663,-87.6869750499,"{'latitude': '41.9541446663', 'longitude': '-87.6869750499', 'human_address': '{""address"": """", ""city"": """", ""state"": """", ""zip"": """"}'}",13,18,46,21538,623
East Garfield Park,27,Supportive Housing,East Park Apts.,3300 W. Maypole Ave.,60624,773-826-3300,The Habitat Co.,152,1154287.33921223,1900828.12983435,41.8836980221,-87.7089025002,"{'latitude': '41.8836980221', 'longitude': '-87.7089025002', 'human_address': '{""address"": """", ""city"": """", ""state"": """", ""zip"": """"}'}",11,23,28,21572,176
West Pullman,53,Supportive Housing,Hancock House,12045 S. Emerald Ave.,60628,773-568-3000,Source Works Development,90,1173523.53624852,1824810.06263597,41.6746900779,-87.6405148423,"{'latitude': '41.6746900779', 'longitude': '-87.6405148423', 'human_address': '{""address"": """", ""city"": """", ""state"": """", ""zip"": """"}'}",45,22,50,21861,60
Humboldt Park,23,Multifamily,La Estancia,3220 W. Division St.,60651,773-227-6332,Bickerdike Apts.,18,1154584.66294305,1907840.06106964,41.9029334898,-87.7076229238,"{'latitude': '41.9029334898', 'longitude': '-87.7076229238', 'human_address': '{""address"": """", ""city"": """", ""state"": """", ""zip"": """"}'}",10,49,24,4299,455
North Lawndale,29,Multifamily,Park Douglas,1313-15 S. Fairfiled Ave.,60608,773-893-4800,Interstate Realty Management Co.,4,1158281.77714212,1893762.462565,41.8642284474,-87.694427661,"{'latitude': '41.8642284474', 'longitude': '-87.694427661', 'human_address': '{""address"": """", ""city"": """", ""state"": """", ""zip"": """"}'}",11,23,30,14920,16
Grand Boulevard,38,Supportive Housing,Washington Park SRO,5000 S. Indiana Ave.,60615,773-924-1107,"East Lake Management Group, Inc.",96,1178406.43677283,1871882.89557239,41.8037545212,-87.6212170565,"{'latitude': '41.8037545212', 'longitude': '-87.6212170565', 'human_address': '{""address"": """", ""city"": """", ""state"": """", ""zip"": """"}'}",12,9,4,21192,449
Lower West Side,31,Multifamily,Resurrection Homes,2124 W. 19th St.,60608,312-666-1323,The Resurrection Project,5,1162389.31265717,1890761.08852357,41.8559075141,-87.6794329233,"{'latitude': '41.8559075141', 'longitude': '-87.6794329233', 'human_address': '{""address"": """", ""city"": """", ""state"": """", ""zip"": """"}'}",8,26,33,14920,4
West Pullman,53,Senior,All Saints Senior Residence,11701 S. State St.,60628,312-655-7440,Catholic Charities Housing Devp.,42,1178389.49623181,1827364.13595576,41.6815900986,-87.6226276337,"{'latitude': '41.6815900986', 'longitude': '-87.6226276337', 'human_address': '{""address"": """", ""city"": """", ""state"": """", ""zip"": """"}'}",30,43,50,21861,229
Near South Side,33,Senior,Senior Suites of Central Station,1400 S. Indiana Ave.,60605,312-913-9333,Senior Lifestyle Corp.,276,1177842.09367839,1893842.68024195,41.8640266649,-87.622620427,"{'latitude': '41.8640266649', 'longitude': '-87.622620427', 'human_address': '{""address"": """", ""city"": """", ""state"": """", ""zip"": """"}'}",48,9,34,14913,374
Washington Park,40,Senior,St. Edmund's Tower Annex,6151 S. Michigan Ave.,60637,773-493-2411,St. Edmund's Redevelopment Corp.,34,1178260.93110499,1864074.92036189,41.7823319979,-87.6219876398,"{'latitude': '41.7823319979', 'longitude': '-87.6219876398', 'human_address': '{""address"": """", ""city"": """", ""state"": """", ""zip"": """"}'}",53,4,7,22260,404
Grand Boulevard,38,Multifamily,Indiana Manor Town Homes,4427-33 S. Indiana Ave.,60653,773-268-5326,Indiana Manor Townhomes,87,1178382.51340629,1875605.78401452,41.8139709971,-87.6211916565,"{'latitude': '41.8139709971', 'longitude': '-87.6211916565', 'human_address': '{""address"": """", ""city"": """", ""state"": """", ""zip"": """"}'}",12,9,4,4301,162
Uptown,3,Supportive Housing,Major Jenkins Apts.,5012 N. Winthrop Ave.,60640,773-506-3486,Mercy Housing,96,1167919.61523849,1933730.43801711,41.9737005572,-87.6578919355,"{'latitude': '41.9737005572', 'longitude': '-87.6578919355', 'human_address': '{""address"": """", ""city"": """", ""state"": """", ""zip"": """"}'}",40,16,31,22616,634
Oakland,36,Multifamily,Lakefront Phase II,1128 E. Bowen Ave.,60653,773-548-8795,"Urban Property Advisors, LLC",3,1184422.55249004,1877469.62876748,41.8189460276,-87.5989781156,"{'latitude': '41.8189460276', 'longitude': '-87.5989781156', 'human_address': '{""address"": """", ""city"": """", ""state"": """", ""zip"": """"}'}",1,10,2,4301,220
North Lawndale,29,Supportive/Youth/Kinship Families,Sankofa House,4041 W. Roosevelt Road,60624,773-257-8800,Interfaith Housing Corp.,32,1149479.82296279,1894358.78141787,41.8660400256,-87.7267241437,"{'latitude': '41.8660400256', 'longitude': '-87.7267241437', 'human_address': '{""address"": """", ""city"": """", ""state"": """", ""zip"": """"}'}",36,14,30,21572,761
Uptown,3,ARO,Saxony Wilson,1630 W. Wilson Ave.,60640,312-243-5353,Malet Realty,2,,,,,,,,,,
Belmont Cragin,19,Senior,Cicero & George Elderly Apts.,4800 W. George St.,60641,312-291-5420,Hispanic Housing Dev. Corp.,70,1143845.6241982,1918889.67055813,41.9334629306,-87.7467922468,"{'latitude': '41.9334629306', 'longitude': '-87.7467922468', 'human_address': '{""address"": """", ""city"": """", ""state"": """", ""zip"": """"}'}",7,17,19,22618,355
Douglas,35,Multifamily,Park Boulevard IIA,17 W. 36th St.,60609,773-548-8792,"Urban Property Advisors, LLC",36,1176708.76672844,1881091.47870277,41.8290621083,-87.6271656778,"{'latitude': '41.8290621083', 'longitude': '-87.6271656778', 'human_address': '{""address"": """", ""city"": """", ""state"": """", ""zip"": """"}'}",12,9,1,14924,353
Lakeview,6,ARO,The Bel,941 W. Belmont Ave.,60657,773-327-6146,33 Realty,4,,,,,,,,,,
West Town,24,Senior,North & Talman Elderly Apts.,1600 N. Talman Ave.,60647,773-486-7410,Hispanic Housing Dev. Corp.,24,1158416.97324626,1910568.8103786,41.9103438337,-87.6934713169,"{'latitude': '41.9103438337', 'longitude': '-87.6934713169', 'human_address': '{""address"": """", ""city"": """", ""state"": """", ""zip"": """"}'}",24,41,25,22535,299
Oakland,36,Multifamily,Lakefront Phase II,4143 S. Lake Park Ave.,60653,773-548-8795,"Urban Property Advisors, LLC",3,1184153.69939648,1877418.81262803,41.8188128856,-87.5999659461,"{'latitude': '41.8188128856', 'longitude': '-87.5999659461', 'human_address': '{""address"": """", ""city"": """", ""state"": """", ""zip"": """"}'}",1,10,2,4301,220
Englewood,68,People with Disabilities,Victoria Jennings Residences,624 W. 61st St.,60621,773-994-3690,"HSR Property Services, LLC",57,1173046.57462975,1864479.46972384,41.7835589092,-87.6410928975,"{'latitude': '41.7835589092', 'longitude': '-87.6410928975', 'human_address': '{""address"": """", ""city"": """", ""state"": """", ""zip"": """"}'}",53,2,66,21559,22
Woodlawn,42,Multifamily,Strand Hotel,6321 S. Cottage Grove Ave.,60637,312-274-9169,Holsten Real Estate Dev. Corp.,63,1182692.1634323,1863173.72934185,41.7797573036,-87.6057696255,"{'latitude': '41.7797573036', 'longitude': '-87.6057696255', 'human_address': '{""address"": """", ""city"": """", ""state"": """", ""zip"": """"}'}",53,4,9,22260,347
Lower West Side,31,Multifamily,Casa Oaxaca,1714 W. 19th St.,60608,312-666-1323,The Resurrection Project,25,1165132.94269897,1890827.82707157,41.8560328733,-87.6693605655,"{'latitude': '41.8560328733', 'longitude': '-87.6693605655', 'human_address': '{""address"": """", ""city"": """", ""state"": """", ""zip"": """"}'}",8,26,33,14920,343
West Town,24,ARO,Wicker Park Connection,1640 W. Division St.,60647,312-330-3210,rmk Management,20,,,,,,,,,,
North Lawndale,29,Multifamily,Park Douglas,1262-1300 S. Washtenaw Ave.,60608,773-893-4800,Interstate Realty Management Co.,7,1158531.93087019,1893930.09460845,41.8646833345,-87.6935047653,"{'latitude': '41.8646833345', 'longitude': '-87.6935047653', 'human_address': '{""address"": """", ""city"": """", ""state"": """", ""zip"": """"}'}",11,23,30,14920,16
Avalon Park,45,Senior,Montclare Senior Residences of Avalon Park,1200 E. 78th St.,60619,773-933-9000,Montclare Senior Residences,102,1185587.74215785,1853564.45895793,41.7533208609,-87.5954564009,"{'latitude': '41.7533208609', 'longitude': '-87.5954564009', 'human_address': '{""address"": """", ""city"": """", ""state"": """", ""zip"": """"}'}",9,35,41,21546,133
Humboldt Park,23,Multifamily,Nelson Mandela Apts.,528 N. Troy St.,60624,773-227-6332,Bickerdike Apts.,3,1155237.31558285,1903580.68498426,41.8912322799,-87.7053401173,"{'latitude': '41.8912322799', 'longitude': '-87.7053401173', 'human_address': '{""address"": """", ""city"": """", ""state"": """", ""zip"": """"}'}",41,46,24,21184,177
Lincoln Square,4,ARO,2247 W. Lawrence Ave.,2247 W. Lawrence Ave.,60625,312-266-1515,CA Urban Living,2,,,,,,,,,,
Chicago Lawn,66,Senior,Lawn Terrace Apts.,3214 W. 63rd Pl,60629,773-925-2815,Greater Southwest Dev. Corp.,102,1155938.09204766,1862375.03146745,41.7781448626,-87.7038754099,"{'latitude': '41.7781448626', 'longitude': '-87.7038754099', 'human_address': '{""address"": """", ""city"": """", ""state"": """", ""zip"": """"}'}",44,31,64,21867,293
Grand Boulevard,38,Senior,Bronzeville Senior Apts.,460 E. 41st St.,60653,773-924-2100,Peoples Co-Op Management Service,97,1180219.19885135,1877957.21416565,41.8203815435,-87.6143824354,"{'latitude': '41.8203815435', 'longitude': '-87.6143824354', 'human_address': '{""address"": """", ""city"": """", ""state"": """", ""zip"": """"}'}",12,9,4,4301,625
Near West Side,28,Multifamily,Westhaven Park Phase IIC,1939 W. Lake St.,60612,312-455-0009,Interstate Realty Management Co.,42,1163284.25735683,1901334.73659817,41.8849038015,-87.6758507682,"{'latitude': '41.8849038015', 'longitude': '-87.6758507682', 'human_address': '{""address"": """", ""city"": """", ""state"": """", ""zip"": """"}'}",41,46,29,21184,579
North Lawndale,29,Senior,Tabernacle Apts.,3836 W. Cermak Road,60623,773-762-3389,Lawndale Christian Residential Svcs.,126,1150987.19026707,1889144.74861114,41.8517027368,-87.7213268803,"{'latitude': '41.8517027368', 'longitude': '-87.7213268803', 'human_address': '{""address"": """", ""city"": """", ""state"": """", ""zip"": """"}'}",36,14,30,21569,752
Lower West Side,31,Multifamily,Casa Monterrey,967 W. 19th St.,60608,312-666-1323,The Resurrection Project,4,1170202.35608923,1891062.31286137,41.8565672424,-87.6507465232,"{'latitude': '41.8565672424', 'longitude': '-87.6507465232', 'human_address': '{""address"": """", ""city"": """", ""state"": """", ""zip"": """"}'}",8,26,33,14920,250
Washington Park,40,Multifamily,Michigan Plaza (St. Edmund's Plaza),5701 S. Michigan Ave.,60653,773-548-8924,Michigan Plaza LP,230,1178170.37078278,1867225.80412267,41.7909803898,-87.6222241137,"{'latitude': '41.7909803898', 'longitude': '-87.6222241137', 'human_address': '{""address"": """", ""city"": """", ""state"": """", ""zip"": """"}'}",53,4,7,22260,403
Edgewater,77,Senior,Pomeroy Apts.,5650 N. Kenmore Ave.,60660,773-275-7820,Habitat Company,198,1168181.12381684,1937918.40049523,41.9851867755,-87.656808677,"{'latitude': '41.9851867755', 'longitude': '-87.656808677', 'human_address': '{""address"": """", ""city"": """", ""state"": """", ""zip"": """"}'}",40,16,76,4451,144
Grand Boulevard,38,Multigfamily,Cornerstone Apts.,731 E. 50th Pl,60615,312-577-5555,The Community Builders Inc.,24,1182124.43530242,1871654.41627889,41.803042216,-87.6075885068,"{'latitude': '41.803042216', 'longitude': '-87.6075885068', 'human_address': '{""address"": """", ""city"": """", ""state"": """", ""zip"": """"}'}",1,10,4,21192,165
South Shore,43,Multifamily,Highlands Tudor Manor,7018 S. Cregier Ave.,60649,773-667-1940,Related Management Co. LP,18,1189376.95360712,1858721.45235642,41.7673820796,-87.5814053802,"{'latitude': '41.7673820796', 'longitude': '-87.5814053802', 'human_address': '{""address"": """", ""city"": """", ""state"": """", ""zip"": """"}'}",32,33,39,22538,381
South Chicago,46,Multifamily,Casa Kirk,3200 E. 92nd St.,60617,773-734-2884,Interfaith Housing Corp.,112,1198941.10272959,1844604.27704711,41.7284087757,-87.546822457,"{'latitude': '41.7284087757', 'longitude': '-87.546822457', 'human_address': '{""address"": """", ""city"": """", ""state"": """", ""zip"": """"}'}",47,47,42,21202,510
North Park,13,Senior,Edward M. Marx Apts.,5801 N. Pulaski Road,60646,773-583-4182,Elderly Housing Devp. & Operations Corp.,180,1148723.50103629,1938044.23656645,41.9859315142,-87.72836921,"{'latitude': '41.9859315142', 'longitude': '-87.72836921', 'human_address': '{""address"": """", ""city"": """", ""state"": """", ""zip"": """"}'}",28,38,13,22532,747
Near South Side,33,Multifamily,Hilliard Homes Phase II,2031 S. Clark St.,60616,312-326-1455,Holsten Management Corp.,176,1175862.86574968,1890322.3611181,41.8544114001,-87.6299918764,"{'latitude': '41.8544114001', 'longitude': '-87.6299918764', 'human_address': '{""address"": """", ""city"": """", ""state"": """", ""zip"": """"}'}",12,9,34,21194,330
Roseland,49,Supportive Housing,Holland Apartments,240 W. 107th Place,60628,773-568-3031,Mercy Housing,40,1176448.51184587,1833690.98593694,41.698995638,-87.6295434504,"{'latitude': '41.698995638', 'longitude': '-87.6295434504', 'human_address': '{""address"": """", ""city"": """", ""state"": """", ""zip"": """"}'}",45,22,45,21861,524
Lakeview,6,Senior LGBTQ,Town Hall Apts.,3600 N. Halsted St.,60613,773-472-6463,Heartland Houing Inc.,79,1170240.93006957,1924164.84687441,41.947401735,-87.6496365844,"{'latitude': '41.947401735', 'longitude': '-87.6496365844', 'human_address': '{""address"": """", ""city"": """", ""state"": """", ""zip"": """"}'}",38,25,57,21186,727
West Town,24,ARO,Seven 10 West,710 W. Grand Ave.,60654,414-369-3511,Outlook Management,1,1171305.69906443,1903732.36441458,41.8913106255,-87.6463244631,"{'latitude': '41.8913106255', 'longitude': '-87.6463244631', 'human_address': '{""address"": """", ""city"": """", ""state"": """", ""zip"": """"}'}",41,46,25,4446,109
Auburn Gresham,71,Supportive/Veterans,Veteran's New Beginnings,8132-44 S. Racine Ave.,60620,773-488-2317,"HSR Property Services, LLC",54,1169700.30702903,1850714.77788477,41.7458601099,-87.6537601722,"{'latitude': '41.7458601099', 'longitude': '-87.6537601722', 'human_address': '{""address"": """", ""city"": """", ""state"": """", ""zip"": """"}'}",18,13,70,21554,575
Logan Square,22,ARO,2556 Armtiage LLC,2556 W. Armitage Ave,60647,773-252-0600,North Clybourn Group,1,,,,,,,,,,
West Town,24,Supportive Housing,Wicker Park Renaissance,1527-31 N. Wicker Park Ave.,60622,773-278-8602,"RRG Development, Inc.",102,1162934.3186359,1910028.94634624,41.9087687359,-87.6768915182,"{'latitude': '41.9087687359', 'longitude': '-87.6768915182', 'human_address': '{""address"": """", ""city"": """", ""state"": """", ""zip"": """"}'}",24,41,25,21560,481
East Garfield Park,27,Multifamily/Artists,Switching Station Lofts,15 S. Homan Ave.,60624,312-859-0577,Holsten Management Corp.,24,1153767.67803258,1899627.5293921,41.8804138115,-87.7108427298,"{'latitude': '41.8804138115', 'longitude': '-87.7108427298', 'human_address': '{""address"": """", ""city"": """", ""state"": """", ""zip"": """"}'}",11,23,28,21572,765
Washington Heights,73,Supportive Housing,Brainerd Park Apts.,8920 S. Loomis St.,60620,312-535-3157,Full Circle Management,4,,,,,,,,,,
Logan Square,22,Multifamily,Zapata Apts.,3503 W. Armitage Ave,60647,773-227-6332,Bickerdike Apartments,12,1152897.63447785,1913030.19290087,41.9172092811,-87.713682006,"{'latitude': '41.9172092811', 'longitude': '-87.713682006', 'human_address': '{""address"": """", ""city"": """", ""state"": """", ""zip"": """"}'}",10,49,23,22535,351
Humboldt Park,23,Multifamily,Nelson Mandela Apts.,3118 W. Franklin Blvd.,60624,773-227-6332,Bickerdike Apts.,6,1155403.53191241,1903205.5310607,41.8901994819,-87.7047397754,"{'latitude': '41.8901994819', 'longitude': '-87.7047397754', 'human_address': '{""address"": """", ""city"": """", ""state"": """", ""zip"": """"}'}",41,46,24,21184,177
Woodlawn,42,Multifamily,Dorchester Apts.,1410 E. 62nd St.,60637,773-572-5500,The Thresholds,67,1186722.40422274,1864209.57243815,41.7825052194,-87.5909616433,"{'latitude': '41.7825052194', 'longitude': '-87.5909616433', 'human_address': '{""address"": """", ""city"": """", ""state"": """", ""zip"": """"}'}",53,4,9,22260,469
Hegewisch,55,Senior,Senior Suites of Hegewisch,13550 S. Avenue O,60633,773-646-1333,Senior Lifestyle Corp.,116,1201038.05887492,1815487.73330301,41.6484574114,-87.540123166,"{'latitude': '41.6484574114', 'longitude': '-87.540123166', 'human_address': '{""address"": """", ""city"": """", ""state"": """", ""zip"": """"}'}",47,47,52,22250,787
South Lawndale,30,Multifamily,Casa Tabasco,3515-17 W. 23rd St.,60623,312-248-8355,The Resurrection Project,8,1153205.14864971,1888451.56193847,41.849756884,-87.713204726,"{'latitude': '41.849756884', 'longitude': '-87.713204726', 'human_address': '{""address"": """", ""city"": """", ""state"": """", ""zip"": """"}'}",14,28,32,21569,755
North Lawndale,29,Multifamily,Fountain View Apts.,1331 S. Independence Blvd.,60623,773-762-3389,Lawndale Christian Residential Svcs.,32,1151511.15780801,1893415.13316801,41.8634109156,-87.7192916814,"{'latitude': '41.8634109156', 'longitude': '-87.7192916814', 'human_address': '{""address"": """", ""city"": """", ""state"": """", ""zip"": """"}'}",36,14,30,21569,33
Humboldt Park,23,Multifamily,Rosa Parks Apts.,532 N. Trumbull Ave.,60624,773-227-6332,Bickerdike Apts.,15,1153240.18385878,1903567.26556071,41.8912353311,-87.7126750163,"{'latitude': '41.8912353311', 'longitude': '-87.7126750163', 'human_address': '{""address"": """", ""city"": """", ""state"": """", ""zip"": """"}'}",41,46,24,21572,584
Near South Side,33,Senior,Hilliard Homes Phase II,30 W. Cermak Road,60616,312-326-1466,Holsten Management Corp.,151,1176346.44120622,1889816.86140397,41.8530133902,-87.628232211,"{'latitude': '41.8530133902', 'longitude': '-87.628232211', 'human_address': '{""address"": """", ""city"": """", ""state"": """", ""zip"": """"}'}",12,9,34,21194,330
Uptown,3,Multifamily,Sunnyside Kenmore Apts.,847-49 W. Sunnyside Ave.,60640,773-769-3116,"Metroplex, Inc.",83,1169606.67765932,1930039.33609462,41.9635353994,-87.6517961908,"{'latitude': '41.9635353994', 'longitude': '-87.6517961908', 'human_address': '{""address"": """", ""city"": """", ""state"": """", ""zip"": """"}'}",37,39,31,22616,20
Gage Park,63,Senior,Senior Suites of Gage Park,3244 W. 59th St.,60629,773-434-4333,Senior Lifestyle Corp.,59,1155572.42511543,1865354.40677861,41.786328045,-87.705136175,"{'latitude': '41.786328045', 'longitude': '-87.705136175', 'human_address': '{""address"": """", ""city"": """", ""state"": """", ""zip"": """"}'}",49,6,61,21867,801
Lower West Side,31,Senior,Casa Maravilla,2021 S. Morgan St.,60608,312-666-1323,The Resurrection Project,5,1170051.20827734,1890349.58661921,41.8546147585,-87.6513220922,"{'latitude': '41.8546147585', 'longitude': '-87.6513220922', 'human_address': '{""address"": """", ""city"": """", ""state"": """", ""zip"": """"}'}",8,26,33,14920,250
Near North Side,8,Supportive Housing,The Midwest/Carroll Park Apts.,1333 N. Kingsbury St.,60622,312-337-5339,Holsten Real Estate Dev. Corp.,40,1170359.45418965,1908979.92926057,41.9057310023,-87.6496459664,"{'latitude': '41.9057310023', 'longitude': '-87.6496459664', 'human_address': '{""address"": """", ""city"": """", ""state"": """", ""zip"": """"}'}",16,46,37,22620,108
Grand Boulevard,38,Multifamily,Cornerstone Apts.,4950 S. Langley Ave.,60615,312-577-5555,The Community Builders Inc.,21,1181729.29665755,1872129.61655719,41.8043553511,-87.6090229601,"{'latitude': '41.8043553511', 'longitude': '-87.6090229601', 'human_address': '{""address"": """", ""city"": """", ""state"": """", ""zip"": """"}'}",1,10,4,21192,165
West Town,24,Multifamily,Boulevard Court Family Housing,1723-33 N. Humboldt Blvd.,60647,773-486-7410,Hispanic Housing Dev. Corp.,52,1156143.31021572,1911450.18995512,41.9128086528,-87.701800063,"{'latitude': '41.9128086528', 'longitude': '-87.701800063', 'human_address': '{""address"": """", ""city"": """", ""state"": """", ""zip"": """"}'}",15,49,25,22535,300
Logan Square,22,ARO,2501 Armitage,2501 W. Armitage Ave.,60647,312-255-1153,Tandem Property Management,8,1159374.11925531,1913163.36871418,41.9174438523,-87.689883619,"{'latitude': '41.9174438523', 'longitude': '-87.689883619', 'human_address': '{""address"": """", ""city"": """", ""state"": """", ""zip"": """"}'}",24,41,23,22535,180
Austin,25,Supportive Housing,Menard Apartments,334 N. Menard Ave.,60644,773-572-5272,The Thresholds,57,1137606.41466193,1901816.66456314,41.8867274207,-87.7701332901,"{'latitude': '41.8867274207', 'longitude': '-87.7701332901', 'human_address': '{""address"": """", ""city"": """", ""state"": """", ""zip"": """"}'}",52,7,26,22216,618
Humboldt Park,23,Disabled/Homeless,West Humboldt Place,3543 W. Chicago Ave.,60651,773-826-1230,Childrens Place Association,13,1152439.7235514,1905064.22043677,41.8953589753,-87.7155751576,"{'latitude': '41.8953589753', 'longitude': '-87.7155751576', 'human_address': '{""address"": """", ""city"": """", ""state"": """", ""zip"": """"}'}",41,46,24,21572,584
Douglas,35,Multifamily,Park Boulevard IIA,3640 S. State St.,60609,773-548-8792,"Urban Property Advisors, LLC",80,1176856.61052139,1880678.42198275,41.8279253109,-87.6266357171,"{'latitude': '41.8279253109', 'longitude': '-87.6266357171', 'human_address': '{""address"": """", ""city"": """", ""state"": """", ""zip"": """"}'}",12,9,1,14924,353
Washington Park,40,Senior,TRC Senior Village I,346 E. 53rd St.,60615,773-924-9270,The Renaissance Collaborative,35,1179447.49011585,1869994.89809028,41.7985499558,-87.6174566934,"{'latitude': '41.7985499558', 'longitude': '-87.6174566934', 'human_address': '{""address"": """", ""city"": """", ""state"": """", ""zip"": """"}'}",12,9,7,21192,218
Humboldt Park,23,Multifamily,Nelson Mandela Apts.,3224 W. Ohio St.,60624,773-227-6332,Bickerdike Apts.,6,1154618.05462433,1903853.44002908,41.8919931605,-87.7076070703,"{'latitude': '41.8919931605', 'longitude': '-87.7076070703', 'human_address': '{""address"": """", ""city"": """", ""state"": """", ""zip"": """"}'}",41,46,24,21572,177
Englewood,68,Supportive Housing,Branch of Hope Apts.,5628-30 S. Halsted St.,60621,773-488-7205,Evergreen Real Estate LLC,99,1171893.83874774,1867410.66202499,41.7916278176,-87.6452332087,"{'latitude': '41.7916278176', 'longitude': '-87.6452332087', 'human_address': '{""address"": """", ""city"": """", ""state"": """", ""zip"": """"}'}",53,4,66,21559,113
Humboldt Park,23,Senior,North & Pulaski Senior Housing,3939-59 W. North Ave.,60647,773-687-0234,Hispanic Housing Dev. Corp.,72,1149678.04231574,1910302.33852858,41.9097870143,-87.7255819184,"{'latitude': '41.9097870143', 'longitude': '-87.7255819184', 'human_address': '{""address"": """", ""city"": """", ""state"": """", ""zip"": """"}'}",27,49,24,22535,454
Uptown,3,Supportive Housing,Harold Washington Apts.,4946 N. Sheridan Road,60640,312-447-4621,Mercy Housing,100,1168689.93333435,1933461.58725464,41.9729461221,-87.6550671247,"{'latitude': '41.9729461221', 'longitude': '-87.6550671247', 'human_address': '{""address"": """", ""city"": """", ""state"": """", ""zip"": """"}'}",37,16,31,22616,634
Near West Side,28,Supportive,Harvest Commons,1519 W. Warren Blvd.,60607,312-660-1354,Heartland Houisng Inc.,89,1165979.29957747,1900396.39342169,41.8822718277,-87.6659809767,"{'latitude': '41.8822718277', 'longitude': '-87.6659809767', 'human_address': '{""address"": """", ""city"": """", ""state"": """", ""zip"": """"}'}",41,46,29,14917,63
Grand Boulevard,38,Multifamily,Hearts United III-The Leontyne (scattered sites),4340-2 S. Champlain St.,60653,773-924-2100,Bonheur Realty Services Corp.,53,1181273.65632834,1876588.6982833,41.8166019546,-87.6105564793,"{'latitude': '41.8166019546', 'longitude': '-87.6105564793', 'human_address': '{""address"": """", ""city"": """", ""state"": """", ""zip"": """"}'}",1,10,4,4301,161
New City,61,Multifamily,Senior Suites of New City,4845 S. Western Blvd.,60609,773-523-9333,Senior Lifestyle Corp.,115,1161385.37395782,1872314.95861343,41.8053101773,-87.6836299382,"{'latitude': '41.8053101773', 'longitude': '-87.6836299382', 'human_address': '{""address"": """", ""city"": """", ""state"": """", ""zip"": """"}'}",29,3,59,14924,788
Albany Park,14,Senior,Darul Amaan Senior Living,4814-58 N. Kedzie Ave.,60625,773-463-3004,East Lake Management & Development Corp.,56,1154133.124514,1931889.15968442,41.9689350644,-87.7086378257,"{'latitude': '41.9689350644', 'longitude': '-87.7086378257', 'human_address': '{""address"": """", ""city"": """", ""state"": """", ""zip"": """"}'}",28,20,14,21849,750
North Lawndale,29,Multifamily,Park Douglas,1254-56 S. Fairfiled Ave.,60608,773-893-4800,Interstate Realty Management Co.,7,1158194.72318677,1894001.25121956,41.8648854853,-87.6947407139,"{'latitude': '41.8648854853', 'longitude': '-87.6947407139', 'human_address': '{""address"": """", ""city"": """", ""state"": """", ""zip"": """"}'}",11,23,30,14920,16
Washington Park,40,Multifamily,St. Edmund's Village,6253 S. Michigan Ave.,60653,773-493-2411,St. Edmund's Village LP,31,1178307.69719998,1863372.59872503,41.7804036945,-87.6218374892,"{'latitude': '41.7804036945', 'longitude': '-87.6218374892', 'human_address': '{""address"": """", ""city"": """", ""state"": """", ""zip"": """"}'}",53,4,7,22260,404
Montclare,18,ARO,"6602, 6614 W. Diversey","6602,6614 W. Diversey Ave.",60707,708-867-3799,Zitella Development,3,1131884.37214125,1917931.50687766,41.9310497553,-87.7907721868,"{'latitude': '41.9310497553', 'longitude': '-87.7907721868', 'human_address': '{""address"": """", ""city"": """", ""state"": """", ""zip"": """"}'}",39,44,18,4454,397
Rogers Park,1,Supportive Housing,Wayne Street Apts.,6808 N. Wayne Ave.,60626,773-572-5272,The Thresholds,297,1165865.34776422,1945401.68880544,42.0057709728,-87.6651110904,"{'latitude': '42.0057709728', 'longitude': '-87.6651110904', 'human_address': '{""address"": """", ""city"": """", ""state"": """", ""zip"": """"}'}",3,5,10,21853,47
West Town,24,Supportive/Veterans,65th Infantry Boringueneers Apts.,1045 N. Sacramento Blvd.,60622,773-772-4801,Hispanic Housing Dev. Corp.,48,1156229.02586848,1906960.64759334,41.9004872305,-87.7016066315,"{'latitude': '41.9004872305', 'longitude': '-87.7016066315', 'human_address': '{""address"": """", ""city"": """", ""state"": """", ""zip"": """"}'}",10,49,25,21560,301
Oakland,36,Multifamily,Lakefront Phase II,1110 E. Bowen Ave.,60653,773-548-8795,"Urban Property Advisors, LLC",3,1184252.73594585,1877396.34826993,41.8187489217,-87.5996033527,"{'latitude': '41.8187489217', 'longitude': '-87.5996033527', 'human_address': '{""address"": """", ""city"": """", ""state"": """", ""zip"": """"}'}",1,10,2,4301,220
Woodlawn,42,Multifamily,Eddie Mae & Alex Johnson Apts.,6230 S. Dorchester Ave.,60637,773-288-4202,Woodlawn East Community,84,1186573.26242799,1863816.8653135,41.7814311307,-87.5915208532,"{'latitude': '41.7814311307', 'longitude': '-87.5915208532', 'human_address': '{""address"": """", ""city"": """", ""state"": """", ""zip"": """"}'}",53,4,9,22260,426
Woodlawn,42,Senior,The Burnham at Woodlawn Park,6134 S. Cottage Grove Ave.,60637,773-955-8668,Preservation Housing Management LLC,65,1182583.34238394,1864354.94400561,41.7830011908,-87.6061319507,"{'latitude': '41.7830011908', 'longitude': '-87.6061319507', 'human_address': '{""address"": """", ""city"": """", ""state"": """", ""zip"": """"}'}",53,4,9,22260,471
Logan Square,22,Multifamily,Rev. Daniel Alvarez Apts.,2451-57 N. Sacramento Ave.,60612,773-772-4063,Hispanic Housing Dev. Corp.,96,1155995.81517927,1916357.84447311,41.926278629,-87.7022092387,"{'latitude': '41.926278629', 'longitude': '-87.7022092387', 'human_address': '{""address"": """", ""city"": """", ""state"": """", ""zip"": """"}'}",15,41,23,22535,548
Chatham,44,Senior,Senior Suites of Chatham,8300 S. Cottage Grove Ave.,60619,773-488-1333,Senior Lifestyle Corp.,90,1182964.71582079,1850099.44426013,41.743873821,-87.6051761606,"{'latitude': '41.743873821', 'longitude': '-87.6051761606', 'human_address': '{""address"": """", ""city"": """", ""state"": """", ""zip"": """"}'}",31,32,40,21546,140
Chicago Lawn,66,Senior,Senior Suites of Marquette Village,7430 S. Rockwell St.,60629,773-432-8420,Senior Lifestyle Corp.,93,1160293.92194352,1855122.44626943,41.7581541131,-87.6881061075,"{'latitude': '41.7581541131', 'longitude': '-87.6881061075', 'human_address': '{""address"": """", ""city"": """", ""state"": """", ""zip"": """"}'}",6,30,64,21867,333
Hyde Park,41,ARO,Vue53,1330 E. 53rd St.,60615,773-355-4972,Peak Campus,27,1185905.31980083,1870431.45163064,41.7995978694,-87.5937610369,"{'latitude': '41.7995978694', 'longitude': '-87.5937610369', 'human_address': '{""address"": """", ""city"": """", ""state"": """", ""zip"": """"}'}",1,10,8,21192,499
North Lawndale,29,Multifamily,Resurrection Homes,1910 S. Albany Ave.,60623,312-248-8355,The Resurrection Project,2,1155952.71475549,1890430.85423032,41.8551333961,-87.7030673957,"{'latitude': '41.8551333961', 'longitude': '-87.7030673957', 'human_address': '{""address"": """", ""city"": """", ""state"": """", ""zip"": """"}'}",36,14,30,21569,132
Douglas,35,Mutifamily,Park Boulevard IIB,15 W. 37th St.,60609,773-548-8792,"Urban Property Advisors, LLC",12,1176697.68004084,1880416.0485266,41.8272089226,-87.6272267219,"{'latitude': '41.8272089226', 'longitude': '-87.6272267219', 'human_address': '{""address"": """", ""city"": """", ""state"": """", ""zip"": """"}'}",12,9,1,14924,353
Lakeview,6,ARO,3462 Lincoln,3462 N. Lincoln Ave.,60657,773-525-6570,Spaces Real Estate,2,,,,,,,,,,
North Lawndale,29,Multifamily,Park Douglas,1218-20 S. Washtenaw Ave.,60608,773-893-4800,Interstate Realty Management Co.,29,1158519.56992569,1894367.80033295,41.8658846962,-87.6935381673,"{'latitude': '41.8658846962', 'longitude': '-87.6935381673', 'human_address': '{""address"": """", ""city"": """", ""state"": """", ""zip"": """"}'}",11,23,30,14920,16
Edgewater,77,Senior,Hollywood House Apts.,5700 N. Sheridan Road,60660,773-728-2600,Heartland Housing,93,1168565.91595768,1938087.01021017,41.9856410954,-87.6553885441,"{'latitude': '41.9856410954', 'longitude': '-87.6553885441', 'human_address': '{""address"": """", ""city"": """", ""state"": """", ""zip"": """"}'}",40,16,76,4451,14
Logan Square,22,Multifamily,Tierra Linda Apts.,1802 N. Sawyer Ave.,60647,773-276-5338,LUCHA,3,,,,,,,,,,
Oakland,36,Multifamily,Lakefront Phase II,4131 S. Lake Park Ave.,60653,773-548-8795,"Urban Property Advisors, LLC",6,1184098.38435685,1877540.90869562,41.8191492211,-87.6001650373,"{'latitude': '41.8191492211', 'longitude': '-87.6001650373', 'human_address': '{""address"": """", ""city"": """", ""state"": """", ""zip"": """"}'}",1,10,2,4301,220
Austin,25,Multifamily,Congress Commons LLC,504 S. Laramie Ave.,60644,773-287-1592,Congress Commons LLC,161,1141766.8175998,1897120.68627109,41.873765121,-87.7549712034,"{'latitude': '41.873765121', 'longitude': '-87.7549712034', 'human_address': '{""address"": """", ""city"": """", ""state"": """", ""zip"": """"}'}",52,7,26,22216,68
Hyde Park,41,ARO,City Hyde Park,5105 S. Harper Ave.,60615,773-548-5077,Mac Properties,36,1187193.90756706,1871412.92057939,41.8022605699,-87.5890043476,"{'latitude': '41.8022605699', 'longitude': '-87.5890043476', 'human_address': '{""address"": """", ""city"": """", ""state"": """", ""zip"": """"}'}",1,10,8,21192,405
West Elsdon,62,Multifamily,Park Place Family Apts.,3630 W. 51st St.,60632,773-767-7260,"Leasing and Management Co., Inc.",78,1152916.27206839,1870602.65888423,41.8007828624,-87.7147366177,"{'latitude': '41.8007828624', 'longitude': '-87.7147366177', 'human_address': '{""address"": """", ""city"": """", ""state"": """", ""zip"": """"}'}",49,8,60,22248,792
Logan Square,22,ARO,1955 Richmond Place,1955 N. Richmond St.,60647,847-542-0442,@properties,3,1156536.74152822,1913073.87091903,41.9172562069,-87.7003106605,"{'latitude': '41.9172562069', 'longitude': '-87.7003106605', 'human_address': '{""address"": """", ""city"": """", ""state"": """", ""zip"": """"}'}",15,41,23,22535,350
Woodlawn,42,Multifamily,The Grant at Woodlawn Pk Phase II,6129 S. Cottage Grove Ave.,60637,312-283-0030,Preservation Housing Management LLC,33,1182661.4709824,1864419.23044943,41.7831757851,-87.6058435155,"{'latitude': '41.7831757851', 'longitude': '-87.6058435155', 'human_address': '{""address"": """", ""city"": """", ""state"": """", ""zip"": """"}'}",53,4,9,22260,470
Lower West Side,31,Multifamily,Casa Guerrero,963 W Cullerton St.,60608,312-666-1323,The Resurrection Project,52,1170238.80583309,1890555.16868233,41.8551748018,-87.6506275348,"{'latitude': '41.8551748018', 'longitude': '-87.6506275348', 'human_address': '{""address"": """", ""city"": """", ""state"": """", ""zip"": """"}'}",8,26,33,14920,250
West Town,24,ARO,1038 N. Ashland,1038-40 N. Ashland Ave.,60622,312-600-4501,Honore Properties,2,1165493.32211713,1907177.77248996,41.9008907949,-87.6675722718,"{'latitude': '41.9008907949', 'longitude': '-87.6675722718', 'human_address': '{""address"": """", ""city"": """", ""state"": """", ""zip"": """"}'}",24,41,25,21560,518
Avondale,21,Supportive Housing,Milwaukee Ave. Apts.,3060 N. Milwaukee Ave.,60618,312-967-7300,Full Circle Management,32,1151100.78156312,1920108.20346754,41.9366673862,-87.7200977199,"{'latitude': '41.9366673862', 'longitude': '-87.7200977199', 'human_address': '{""address"": """", ""city"": """", ""state"": """", ""zip"": """"}'}",27,21,22,21538,215
Douglas,35,Multifamily,Park Boulevard IIB,10 W. 37th St.,60609,773-548-8792,"Urban Property Advisors, LLC",12,1176772.48965494,1880503.01369486,41.8274458746,-87.6269496359,"{'latitude': '41.8274458746', 'longitude': '-87.6269496359', 'human_address': '{""address"": """", ""city"": """", ""state"": """", ""zip"": """"}'}",12,9,1,14924,353
North Park,13,Senior,J. Michael Fitzgerald Apts.,5801 N. Pulaski Road,60646,773-588-1725,Elderly Housing Devp. & Operations Corp.,63,1148723.50103629,1938044.23656645,41.9859315142,-87.72836921,"{'latitude': '41.9859315142', 'longitude': '-87.72836921', 'human_address': '{""address"": """", ""city"": """", ""state"": """", ""zip"": """"}'}",28,38,13,22532,747
Oakland,36,Multifamily,Lakefront Phase II,1060 E. 41st St.,60653,773-548-8795,"Urban Property Advisors, LLC",81,1184020.76432545,1877980.71122625,41.820357887,-87.6004360121,"{'latitude': '41.820357887', 'longitude': '-87.6004360121', 'human_address': '{""address"": """", ""city"": """", ""state"": """", ""zip"": """"}'}",1,10,2,4301,220
East Garfield Park,27,Supportive Housing,Deborah's Place III,2822 W. Jackson Blvd.,60612,773-638-6490,Deborah's Place,90,1157527.97541372,1898606.33636721,41.8775358858,-87.6970630483,"{'latitude': '41.8775358858', 'longitude': '-87.6970630483', 'human_address': '{""address"": """", ""city"": """", ""state"": """", ""zip"": """"}'}",48,46,28,21184,51
Humboldt Park,23,Multifamily,La Estancia,3248 W. Division St.,60651,773-227-6332,Bickerdike Apts.,9,1154314.31953383,1907834.52609989,41.902923708,-87.7086160992,"{'latitude': '41.902923708', 'longitude': '-87.7086160992', 'human_address': '{""address"": """", ""city"": """", ""state"": """", ""zip"": """"}'}",10,49,24,4299,455
North Lawndale,29,Multifamily,Park Douglas,2642-44 W. 12 th Pl,60608,773-893-4800,Interstate Realty Management Co.,17,1158736.89740263,1894328.04036865,41.8657711435,-87.6927414311,"{'latitude': '41.8657711435', 'longitude': '-87.6927414311', 'human_address': '{""address"": """", ""city"": """", ""state"": """", ""zip"": """"}'}",11,23,30,14920,16
Montclare,18,Senior,The Montclare Senior Residences,6650 W. Belden Ave.,60707,773-237-3831,Pacific Management Inc.,7,1131547.9315415,1914379.41566769,41.9213082228,-87.792090958,"{'latitude': '41.9213082228', 'longitude': '-87.792090958', 'human_address': '{""address"": """", ""city"": """", ""state"": """", ""zip"": """"}'}",39,7,18,4454,136
North Lawndale,29,Supportive/HIV/AIDS,Hope House,1251 S. Sawyer Ave.,60623,773-935-4663,"AIDSCare, Inc.",80,1154939.02342039,1893956.67972843,41.8648290106,-87.7066936632,"{'latitude': '41.8648290106', 'longitude': '-87.7066936632', 'human_address': '{""address"": """", ""city"": """", ""state"": """", ""zip"": """"}'}",36,14,30,21569,34
Belmont Cragin,19,Senior,Crystal Courts/Anixter Center,5038 W. Armitage Ave.,60639,773-385-9080,Lester and Rosalie Anixter Center,17,1142340.78111141,1912865.65935215,41.916960542,-87.7524724894,"{'latitude': '41.916960542', 'longitude': '-87.7524724894', 'human_address': '{""address"": """", ""city"": """", ""state"": """", ""zip"": """"}'}",7,44,19,22615,306
Woodlawn,42,Multifamily,Renaissance Apts.,6200 S. University Ave.,60637,773-752-9400,AIMCO,64,1184799.33531403,1864093.1165452,41.7822309985,-87.598015727,"{'latitude': '41.7822309985', 'longitude': '-87.598015727', 'human_address': '{""address"": """", ""city"": """", ""state"": """", ""zip"": """"}'}",53,4,9,22260,427
Englewood,68,Supportive Housing,Rowan Trees Apts.,500 W. Englewood Ave.,60621,773-572-5272,The Thresholds,167,1174002.15951365,1863521.64325247,41.7809093636,-87.637617817,"{'latitude': '41.7809093636', 'longitude': '-87.637617817', 'human_address': '{""address"": """", ""city"": """", ""state"": """", ""zip"": """"}'}",53,4,66,21559,166
West Town,24,Multifamily,North and Talman Family Apts.,2654 W. North Ave.,60647,773-486-7410,Hispanic Housing Dev. Corp.,30,1158184.40121011,1910570.96075479,41.9103544922,-87.6943256397,"{'latitude': '41.9103544922', 'longitude': '-87.6943256397', 'human_address': '{""address"": """", ""city"": """", ""state"": """", ""zip"": """"}'}",24,41,25,22535,299
Austin,22,Multifamily,Madison Renaissance Apts.,1816 N. St. Louis Ave.,60647,773-227-1366,Related Management Co. LP,30,1152932.10619515,1911940.49730959,41.9142183771,-87.7135842866,"{'latitude': '41.9142183771', 'longitude': '-87.7135842866', 'human_address': '{""address"": """", ""city"": """", ""state"": """", ""zip"": """"}'}",10,41,23,22535,351
West Pullman,53,Senior,Kennedy Jordan Manor,825 W. 118th St.,60643,773-568-2929,Source Works Management,70,1172827.45383241,1826559.72039584,41.679506755,-87.6430113027,"{'latitude': '41.679506755', 'longitude': '-87.6430113027', 'human_address': '{""address"": """", ""city"": """", ""state"": """", ""zip"": """"}'}",45,22,50,22212,642
East Garfield Park,27,Senior,Heritage Woods of Chicago,2800 W. Fulton St.,60612,773-722-2900,BMA Management Ltd.,113,1157640.84823492,1901927.15476583,41.8866462303,-87.696558136,"{'latitude': '41.8866462303', 'longitude': '-87.696558136', 'human_address': '{""address"": """", ""city"": """", ""state"": """", ""zip"": """"}'}",41,46,28,21184,50
Rogers Park,1,Senior,James Sneider Apts.,7450 N. Rogers Ave.,60626,773-743-3699,Hispanic Housing Dev. Corp.,57,1163640.70906836,1949531.17141547,42.0171497111,-87.6731785733,"{'latitude': '42.0171497111', 'longitude': '-87.6731785733', 'human_address': '{""address"": """", ""city"": """", ""state"": """", ""zip"": """"}'}",3,5,10,21853,489
Humboldt Park,23,Multifamily,Tierra Linda Apts.,1749-51 N. Drake Ave.,60647,773-276-5338,LUCHA,6,,,,,,,,,,
Douglas,35,Senior,Pioneer Village Apts.,340 E. 38th St.,60653,773-536-0463,Pioneer Affordable Housing Preservation,152,1179348.36008915,1879907.4959198,41.8257532207,-87.6175174282,"{'latitude': '41.8257532207', 'longitude': '-87.6175174282', 'human_address': '{""address"": """", ""city"": """", ""state"": """", ""zip"": """"}'}",12,9,1,4301,222
Uptown,3,Multifamily,Uptown Preservation Apts.,900 W. Windsor Ave.,60640,773-286-5400,Leasing & Management Co. Inc.,160,1169410.72384335,1930422.94203422,41.9645923009,-87.6525054366,"{'latitude': '41.9645923009', 'longitude': '-87.6525054366', 'human_address': '{""address"": """", ""city"": """", ""state"": """", ""zip"": """"}'}",37,39,31,22616,20
Near West Side,28,Multifamily,Jackson Square West End,2425 W. Adams St.,60612,312-492-6645,East Lake Management Co.,115,1160165.74619842,1898949.64957708,41.8784239004,-87.6873683543,"{'latitude': '41.8784239004', 'longitude': '-87.6873683543', 'human_address': '{""address"": """", ""city"": """", ""state"": """", ""zip"": """"}'}",48,46,29,21184,785
Logan Square,22,Multifamily,Tierra Linda Apts.,1822 N. Sawyer Ave.,60647,773-276-5338,LUCHA,3,,,,,,,,,,
Uptown,3,ARO,811 Uptown,811 W. Agatite Ave.,60640,312-402-7784,RL Accelerated,22,1169980.75332239,1929712.3690798,41.962630019,-87.650430429,"{'latitude': '41.962630019', 'longitude': '-87.650430429', 'human_address': '{""address"": """", ""city"": """", ""state"": """", ""zip"": """"}'}",37,39,31,22616,20
Grand Boulevard,38,Senior HUD 202,Margaret Ford Manor Independent Living,4500 S. Wabash Ave.,60653,773-924-9171,"HSR Property Services, LLC",63,1177427.15607438,1875236.62319051,41.8129796596,-87.6247071273,"{'latitude': '41.8129796596', 'longitude': '-87.6247071273', 'human_address': '{""address"": """", ""city"": """", ""state"": """", ""zip"": """"}'}",12,9,4,4301,393
Lakeview,6,ARO,927 W. Irving,927 W. Irving Park Rd.,60613,773-665-0103,DLG Management,1,1169246.12565157,1926706.62337092,41.9543981834,-87.6532190636,"{'latitude': '41.9543981834', 'longitude': '-87.6532190636', 'human_address': '{""address"": """", ""city"": """", ""state"": """", ""zip"": """"}'}",37,39,57,21186,83
Logan Square,22,ARO,The Western,1920 N. Milwaukee Ave.,60647,312-883-7331,Golub Realty Services,1,,,,,,,,,,
West Town,24,ARO,Homer Townhomes,1623 N. Talman Ave.,60647,773-975-7234,Kass Management,5,1158490.60886582,1910798.29372114,41.9109720465,-87.6931945157,"{'latitude': '41.9109720465', 'longitude': '-87.6931945157', 'human_address': '{""address"": """", ""city"": """", ""state"": """", ""zip"": """"}'}",24,41,25,22535,299
Logan Square,22,ARO,2211 N. Milwaukee Ave.,2201-31 N. Milwaukee Ave.,60647,773-327-4975,33 Management LLC,12,1158283.98047586,1914416.07980073,41.9209037608,-87.6938544995,"{'latitude': '41.9209037608', 'longitude': '-87.6938544995', 'human_address': '{""address"": """", ""city"": """", ""state"": """", ""zip"": """"}'}",24,41,23,22535,294
Humboldt Park,23,Multifamily,Spaulding Apartments,1750 N. Spaulding Ave.,60647,773-381-7400,G&A Management,111,1153823.7192268,1911621.62839107,41.9133256466,-87.7103171384,"{'latitude': '41.9133256466', 'longitude': '-87.7103171384', 'human_address': '{""address"": """", ""city"": """", ""state"": """", ""zip"": """"}'}",10,49,24,22535,390
Near North Side,8,ARO,847 N. Larabee,847 N. Larabee St.,60610,773-698-6648,Fulton Grace Realty,1,,,,,,,,,,
North Lawndale,29,Multifamily,Park Douglas,1302-06 S. Washtenaw Ave.,60608,773-893-4800,Interstate Realty Management Co.,5,1158533.50680198,1893871.34030389,41.8645220745,-87.6935005875,"{'latitude': '41.8645220745', 'longitude': '-87.6935005875', 'human_address': '{""address"": """", ""city"": """", ""state"": """", ""zip"": """"}'}",11,23,30,14920,16
Woodlawn,42,Multifamily,65th Street Apts.,817 E. 64th St.,60637,773-684-2056,"Urban Property Advisors, LLC",6,1182886.22597117,1862714.79366575,41.7784934339,-87.6050724236,"{'latitude': '41.7784934339', 'longitude': '-87.6050724236', 'human_address': '{""address"": """", ""city"": """", ""state"": """", ""zip"": """"}'}",53,4,9,22260,347
Grand Boulevard,38,Senior,Park Boulevard Tower/Grand Renaissance Apts.,4257 S. King Dr.,60653,773-268-4642,"East Lake Management Group, Inc.",24,1179612.43561157,1876628.60508636,41.8167496439,-87.6166489475,"{'latitude': '41.8167496439', 'longitude': '-87.6166489475', 'human_address': '{""address"": """", ""city"": """", ""state"": """", ""zip"": """"}'}",12,9,4,4301,163
West Garfield Park,26,Senior,Fannie Emanuel Apts.,3916 W. Washington Blvd.,60624,312-913-5812,McCormack Baron Management Inc.,181,1150182.64045322,1900168.64274653,41.8819692864,-87.7239926128,"{'latitude': '41.8819692864', 'longitude': '-87.7239926128', 'human_address': '{""address"": """", ""city"": """", ""state"": """", ""zip"": """"}'}",11,23,27,21572,658
Near West Side,28,Multifamily,Roosevelt Square Phase I /ABLA Rental,1222 W. Roosevelt Road,60607,312-948-0116,Related Management Co. LP,105,1168285.13271875,1894881.98460138,41.8670903488,-87.6576733813,"{'latitude': '41.8670903488', 'longitude': '-87.6576733813', 'human_address': '{""address"": """", ""city"": """", ""state"": """", ""zip"": """"}'}",48,23,29,14917,759
Washington Park,40,Multifamily,Harriett Tubman Apts.,5751-59 S. Michigan Ave.,60637,773-752-9760,Brand New Beginnings Inc.,65,1178184.05044772,1866708.81597414,41.7895614137,-87.6221896343,"{'latitude': '41.7895614137', 'longitude': '-87.6221896343', 'human_address': '{""address"": """", ""city"": """", ""state"": """", ""zip"": """"}'}",53,4,7,22260,403
Fuller Park,37,Senior,Fellowship Manor,5041 S. Princeton Ave.,60609,773-924-5980,"East Lake Management Group, Inc.",100,1175183.4790044,1871367.58227137,41.8024131184,-87.6330525826,"{'latitude': '41.8024131184', 'longitude': '-87.6330525826', 'human_address': '{""address"": """", ""city"": """", ""state"": """", ""zip"": """"}'}",12,9,3,14924,224
Auburn Gresham,71,Senior HUD 202,Naomi & Sylvester Smith Senior Living Ctr.,8019-55 S. Halsted St.,60620,773-651-6400,"HSR Property Services, LLC",59,1172404.46593612,1851597.13382272,41.7482223777,-87.6438256988,"{'latitude': '41.7482223777', 'longitude': '-87.6438256988', 'human_address': '{""address"": """", ""city"": """", ""state"": """", ""zip"": """"}'}",18,13,70,21554,529
New City,61,Senior,West Haven Homes,850 W. Garfield Blvd.,60609,773-536-3057,"Universal Management Service, Inc.",110,1171337.26942413,1868414.146219,41.7943936951,-87.6472446717,"{'latitude': '41.7943936951', 'longitude': '-87.6472446717', 'human_address': '{""address"": """", ""city"": """", ""state"": """", ""zip"": """"}'}",53,4,59,14924,768
Roseland,49,Senior,Victory Center of Roseland,10450 S. Michigan Ave.,60628,773-468-6400,Pathway Senior Living,81,1178829.40071189,1835494.40532173,41.7038907515,-87.6207711553,"{'latitude': '41.7038907515', 'longitude': '-87.6207711553', 'human_address': '{""address"": """", ""city"": """", ""state"": """", ""zip"": """"}'}",30,43,45,21861,236
Douglas,35,Multifamily,Park Boulevard IIA,3604 S. State St.,60609,773-548-8792,"Urban Property Advisors, LLC",6,1176845.91461801,1881076.38182324,41.8290175865,-87.6266629487,"{'latitude': '41.8290175865', 'longitude': '-87.6266629487', 'human_address': '{""address"": """", ""city"": """", ""state"": """", ""zip"": """"}'}",12,9,1,14924,353
Grand Boulevard,38,Multifamily,Cornerstone Apts.,611 E. 50th St.,60615,312-577-5555,The Community Builders Inc.,8,1181237.49321335,1871959.19623043,41.8038990623,-87.6108319018,"{'latitude': '41.8038990623', 'longitude': '-87.6108319018', 'human_address': '{""address"": """", ""city"": """", ""state"": """", ""zip"": """"}'}",1,10,4,21192,165
Oakland,36,Multifamily,Lakefront Phase II,1137 E. Bowen Ave.,60653,773-548-8795,"Urban Property Advisors, LLC",3,1184548.96694928,1877442.50329026,41.8188686278,-87.5985152379,"{'latitude': '41.8188686278', 'longitude': '-87.5985152379', 'human_address': '{""address"": """", ""city"": """", ""state"": """", ""zip"": """"}'}",1,10,2,4301,220
North Lawndale,29,Multifamily,Park Douglas,1317-19 S. Fairfield Ave.,60608,773-893-4800,Interstate Realty Management Co.,29,1158282.87349863,1893724.63384489,41.8641246191,-87.6944246698,"{'latitude': '41.8641246191', 'longitude': '-87.6944246698', 'human_address': '{""address"": """", ""city"": """", ""state"": """", ""zip"": """"}'}",11,23,30,14920,16
Montclare,18,ARO,2815-19 N. Natoma,2815-19 N. Natoma Ave.,60634,708-867-3790,Zitella Development,2,,,,,,,,,,
West Ridge,2,ARO,Joy Plaza Residences,6411 N. Rockwell Ave.,60645,224-534-9361,Devon NJ LLC,3,1157863.15923004,1942516.73673856,41.9980221693,-87.6946311267,"{'latitude': '41.9980221693', 'longitude': '-87.6946311267', 'human_address': '{""address"": """", ""city"": """", ""state"": """", ""zip"": """"}'}",42,27,20,4450,41
Uptown,3,Senior,Ruth Shriman House,4040 N. Sheridan Road,60613,773-665-2210,Interfaith Housing Corp.,231,1168832.74962252,1927172.30289507,41.9556850173,-87.6547251281,"{'latitude': '41.9556850173', 'longitude': '-87.6547251281', 'human_address': '{""address"": """", ""city"": """", ""state"": """", ""zip"": """"}'}",37,39,31,21186,577
Washington Park,40,Multifamily,St. Edmund's Oasis,6100-24 S. Prairie Ave.,60637,773-493-2411,St. Edmund's Redevelopment Corp.,27,1179047.07373454,1864591.09773502,41.7837305569,-87.6190897249,"{'latitude': '41.7837305569', 'longitude': '-87.6190897249', 'human_address': '{""address"": """", ""city"": """", ""state"": """", ""zip"": """"}'}",53,4,7,22260,404
Grand Boulevard,38,Multifamily,Hearts United I-The Langston (scattered sites),722-46 E. Bowen Ave.,60653,773-924-2100,Bonheur Realty Services Corp.,116,1181829.59842738,1877677.35986092,41.8195764741,-87.6084834879,"{'latitude': '41.8195764741', 'longitude': '-87.6084834879', 'human_address': '{""address"": """", ""city"": """", ""state"": """", ""zip"": """"}'}",1,10,4,4301,583
South Chicago,46,Senior,Victory Center of South Chicago,9200 S. Burley Ave.,60617,773-449-2600,Pathway Senior Living,23,1199232.90117817,1844538.09982248,41.7282198588,-87.5457557823,"{'latitude': '41.7282198588', 'longitude': '-87.5457557823', 'human_address': '{""address"": """", ""city"": """", ""state"": """", ""zip"": """"}'}",47,47,42,21202,510
Humboldt Park,23,Multifamily,Nelson Mandela Apts.,3114 W. Franklin Blvd.,60624,773-227-6332,Bickerdike Apts.,6,1155445.17633885,1903206.49998919,41.8902013035,-87.7045868112,"{'latitude': '41.8902013035', 'longitude': '-87.7045868112', 'human_address': '{""address"": """", ""city"": """", ""state"": """", ""zip"": """"}'}",41,46,24,21184,177
Near North Side,8,ARO,Xavier Chicago,625 W. Division St.,60622,312-642-2279,Greystar Property Management,24,1171812.25045862,1908210.38765268,41.9035874398,-87.6443320836,"{'latitude': '41.9035874398', 'longitude': '-87.6443320836', 'human_address': '{""address"": """", ""city"": """", ""state"": """", ""zip"": """"}'}",41,46,37,14926,108
Grand Boulevard,38,Multifamily,Legends South - Gwendolyn Place,4333 S. Michigan Ave.,60653,773-624-7676,Interstate Realty Management Co.,71,1177923.90364588,1876177.55266653,41.8155503961,-87.6228565224,"{'latitude': '41.8155503961', 'longitude': '-87.6228565224', 'human_address': '{""address"": """", ""city"": """", ""state"": """", ""zip"": """"}'}",12,9,4,4301,393
Edgewater,77,Multifamily,Bell Shore Apts.,1062 W. Bryn Mawr Ave.,60660,773-334-5407,Holsten Management Corp.,105,1167941.81328281,1937401.25662814,41.9837729037,-87.6577038394,"{'latitude': '41.9837729037', 'longitude': '-87.6577038394', 'human_address': '{""address"": """", ""city"": """", ""state"": """", ""zip"": """"}'}",40,16,76,4451,144
Near West Side,28,Senior,McCrory Senior Apts.,1637-59 W. Washington Blvd.,60612,312-243-3333,Leasing & Management Co. Inc.,62,,,,,,,,,,
North Lawndale,29,Senior,Roosevelt Towers,3440 W. Roosevelt Road,60624,773-265-6961,"East Lake Management Group, Inc.",104,1153440.12419366,1894532.77495948,41.8664397713,-87.7121808603,"{'latitude': '41.8664397713', 'longitude': '-87.7121808603', 'human_address': '{""address"": """", ""city"": """", ""state"": """", ""zip"": """"}'}",36,14,30,21572,98
Lakeview,6,Supportive,Buffet Place,3208 N. Shefield Ave.,60657,312-572-5272,Thresholds,51,1169002.94329912,1921540.75961749,41.9402281368,-87.6542634882,"{'latitude': '41.9402281368', 'longitude': '-87.6542634882', 'human_address': '{""address"": """", ""city"": """", ""state"": """", ""zip"": """"}'}",38,25,57,4449,710
Lower West Side,31,Multifamily,Casa San Luis,1646-50 S. Throop St.,60608,312-666-1323,The Resurrection Project,12,1167939.64144991,1891689.48027696,41.8583373045,-87.6590337725,"{'latitude': '41.8583373045', 'longitude': '-87.6590337725', 'human_address': '{""address"": """", ""city"": """", ""state"": """", ""zip"": """"}'}",8,26,33,14920,365
Greater Grand Crossing,69,Artist Housing,Dorchester Art + Housing Collaborative,1450 E. 70th St.,60619,773-324-2270,Leasing & Management Co. Inc.,32,1187273.42007368,1858913.33794957,41.7679588345,-87.5891095264,"{'latitude': '41.7679588345', 'longitude': '-87.5891095264', 'human_address': '{""address"": """", ""city"": """", ""state"": """", ""zip"": """"}'}",32,33,39,22260,416
South Shore,43,Senior,Senior Suites of Rainbow Beach,2804 E. 77th Place,60649,773-374-5333,Senior Lifestyle Corp.,87,1196631.91208052,1854159.4837005,41.7546866025,-87.5549647165,"{'latitude': '41.7546866025', 'longitude': '-87.5549647165', 'human_address': '{""address"": """", ""city"": """", ""state"": """", ""zip"": """"}'}",43,37,39,22538,421
Humboldt Park,23,Multifamily,Nelson Mandela Apts.,3554 W. Ohio St.,60624,773-227-6332,Bickerdike Apts.,6,1152342.72760524,1903805.74547926,41.8919075104,-87.7159646599,"{'latitude': '41.8919075104', 'longitude': '-87.7159646599', 'human_address': '{""address"": """", ""city"": """", ""state"": """", ""zip"": """"}'}",41,46,24,21572,584
West Town,24,ARO,Centrum Wicker Park,1664 W. Division St.,60622,312-368-3000,Centrum Partners,6,1164833.06851895,1908092.56216954,41.9034150774,-87.6699714414,"{'latitude': '41.9034150774', 'longitude': '-87.6699714414', 'human_address': '{""address"": """", ""city"": """", ""state"": """", ""zip"": """"}'}",24,41,25,21560,481
North Lawndale,29,Multifamily,Park Douglas,1224 S. Washtenaw Ave.,60608,773-893-4800,Interstate Realty Management Co.,31,1158521.5169877,1894293.84948975,41.8656817278,-87.6935330428,"{'latitude': '41.8656817278', 'longitude': '-87.6935330428', 'human_address': '{""address"": """", ""city"": """", ""state"": """", ""zip"": """"}'}",11,23,30,14920,16
Near South Side,33,Senior,Hilliard Homes Phase I,30 W. Cermak Road,60616,312-326-1455,Holsten Real Estate Dev. Corp.,151,1176346.44120622,1889816.86140397,41.8530133902,-87.628232211,"{'latitude': '41.8530133902', 'longitude': '-87.628232211', 'human_address': '{""address"": """", ""city"": """", ""state"": """", ""zip"": """"}'}",12,9,34,21194,330
West Town,24,Multifamily,North & Talman Phase III,2656 W. North Ave.,60647,773-602-2888,Hispanic Housing Dev. Corp.,18,1158163.07040363,1910570.521178,41.9103537221,-87.694404013,"{'latitude': '41.9103537221', 'longitude': '-87.694404013', 'human_address': '{""address"": """", ""city"": """", ""state"": """", ""zip"": """"}'}",24,41,25,22535,299
Portage Park,15,ARO,4015 Narragansett LLC,4015-23 N. Narragansett Ave.,60634,708-867-3799,Zidan Management Group,2,1133012.82543309,1926100.10407244,41.9534456208,-87.7864337467,"{'latitude': '41.9534456208', 'longitude': '-87.7864337467', 'human_address': '{""address"": """", ""city"": """", ""state"": """", ""zip"": """"}'}",25,19,15,22254,131
Humboldt Park,23,Multifamily,Nelson Mandela Apts.,607 N. Sawyer Ave.,60624,773-227-6332,Bickerdike Apts.,6,1154639.54797132,1903911.99297257,41.8921534052,-87.7075265659,"{'latitude': '41.8921534052', 'longitude': '-87.7075265659', 'human_address': '{""address"": """", ""city"": """", ""state"": """", ""zip"": """"}'}",41,46,24,21572,177
Oakland,36,Multifamily,Lakefront Phase II,1113 E. Bowen Ave.,60653,773-548-8795,"Urban Property Advisors, LLC",6,1184313.13044188,1877335.2356509,41.8185798091,-87.5993837219,"{'latitude': '41.8185798091', 'longitude': '-87.5993837219', 'human_address': '{""address"": """", ""city"": """", ""state"": """", ""zip"": """"}'}",1,10,2,4301,220
Near South Side,33,Senior,G&A Senior Residences at Eastgate Village,300 E. 26th Street,60616,773-381-7400,Eastgate Village Partners LP,127,1178501.16178602,1887204.43984735,41.8457959044,-87.6204033747,"{'latitude': '41.8457959044', 'longitude': '-87.6204033747', 'human_address': '{""address"": """", ""city"": """", ""state"": """", ""zip"": """"}'}",48,10,34,21194,193
Ashburn,70,Senior,Wrightwood Senior Apts.,2815 W. 79th St.,60652,773-471-7777,Ludwig and Company,85,1158906.93376612,1852040.95426992,41.7497264566,-87.6932733372,"{'latitude': '41.7497264566', 'longitude': '-87.6932733372', 'human_address': '{""address"": """", ""city"": """", ""state"": """", ""zip"": """"}'}",6,30,69,4300,243
North Lawndale,29,Multifamily,Park Douglas,1260 S. Fairfield Ave.,60608,773-893-4800,Interstate Realty Management Co.,1,1158196.48044518,1893944.25275005,41.8647290398,-87.6947358195,"{'latitude': '41.8647290398', 'longitude': '-87.6947358195', 'human_address': '{""address"": """", ""city"": """", ""state"": """", ""zip"": """"}'}",11,23,30,14920,16
Near West Side,28,ARO,171 N. Aberdeen St.,171 N. Aberdeen St.,60607,773-675-0244,Medici Living,6,,,,,,,,,,
Grand Boulevard,38,Multifamily,Progressive Square,4752 S. Wabash Ave.,60614,773-975-7234,CMHDC/Progressive NFP/Kass Management,107,1177483.24635564,1873312.72207264,41.8076990345,-87.6245595889,"{'latitude': '41.8076990345', 'longitude': '-87.6245595889', 'human_address': '{""address"": """", ""city"": """", ""state"": """", ""zip"": """"}'}",12,9,4,21192,448
Logan Square,22,Senior,Renaissance West,2517 W. Fullerton Ave.,60647,773-862-2500,Renaissance Realty Group Inc.,41,1159142.56328417,1915828.56073189,41.9247620985,-87.6906609777,"{'latitude': '41.9247620985', 'longitude': '-87.6906609777', 'human_address': '{""address"": """", ""city"": """", ""state"": """", ""zip"": """"}'}",24,41,23,22535,323
Chicago Lawn,66,Senior,Churchview Manor Independent Living,2626 W. 63rd St.,60629,773-925-0730,Greater Southwest Dev. Corp.,60,1159807.02751173,1862817.68973373,41.7792809902,-87.6896794864,"{'latitude': '41.7792809902', 'longitude': '-87.6896794864', 'human_address': '{""address"": """", ""city"": """", ""state"": """", ""zip"": """"}'}",44,2,64,21867,111
Woodlawn,42,Multifamily,Woodlawn Station,6253 S. Cottage Grove Ave.,60637,773-955-8668,Preservation Housing Management LLC,55,,,,,,,,,,
Lakeview,6,ARO,3220 Lincoln,3220 N. Lincoln Ave.,60657,312-214-3563,3220 Lincoln LLC,2,,,,,,,,,,
North Lawndale,29,Multifamily,Praise Apts.,1859 S. Pulaski Road,60623,773-762-3389,Lawndale Christian Residential Svcs.,11,1150056.06296146,1890463.50315966,41.8553397217,-87.7247100763,"{'latitude': '41.8553397217', 'longitude': '-87.7247100763', 'human_address': '{""address"": """", ""city"": """", ""state"": """", ""zip"": """"}'}",36,14,30,21569,752
Near North Side,8,Multifamily,Parkside-I Rental,545 W. Division St.,60610,312-944-8500,Holsten Management Corp.,116,1172154.28894295,1908220.99754122,41.9036090085,-87.6430753954,"{'latitude': '41.9036090085', 'longitude': '-87.6430753954', 'human_address': '{""address"": """", ""city"": """", ""state"": """", ""zip"": """"}'}",41,46,37,14926,148
Humboldt Park,23,Multifamily,Bloomingdale Apts.,1745 N. Keystone Ave.,60639,773-276-2965,Village Green Management Co.,48,1149146.63625855,1911465.93887072,41.9129903623,-87.7275039055,"{'latitude': '41.9129903623', 'longitude': '-87.7275039055', 'human_address': '{""address"": """", ""city"": """", ""state"": """", ""zip"": """"}'}",27,49,24,22615,285
Uptown,3,Senior,Kenmore Senior Housing,5040 N. Kenmore Ave.,60640,773-769-3006,The Habitat Co.,98,1168292.83212033,1934023.28994326,41.9744960685,-87.6565110221,"{'latitude': '41.9744960685', 'longitude': '-87.6565110221', 'human_address': '{""address"": """", ""city"": """", ""state"": """", ""zip"": """"}'}",40,16,31,22616,634
Humboldt Park,23,Multifamily,Rosa Parks Apts.,526 N. St. Louis Ave.,60624,773-227-6332,Bickerdike Apts.,12,1152910.9641335,1903460.21247466,41.8909480951,-87.7138869273,"{'latitude': '41.8909480951', 'longitude': '-87.7138869273', 'human_address': '{""address"": """", ""city"": """", ""state"": """", ""zip"": """"}'}",41,46,24,21572,584
Washington Heights,73,Senior,Brainerd Senior Center,8915 S. Loomis St.,60620,773-429-1501,Realty & Mortgage Co.,60,1168602.53357585,1845525.79831643,41.7316445313,-87.6579318552,"{'latitude': '41.7316445313', 'longitude': '-87.6579318552', 'human_address': '{""address"": """", ""city"": """", ""state"": """", ""zip"": """"}'}",18,13,72,21554,195
Lower West Side,31,Multifamily,Casa Chiapas,1712 W. 17th St.,60608,312-666-1323,The Resurrection Project,72,1165119.37257759,1891824.73932248,41.8587687803,-87.6693820787,"{'latitude': '41.8587687803', 'longitude': '-87.6693820787', 'human_address': '{""address"": """", ""city"": """", ""state"": """", ""zip"": """"}'}",8,26,33,14920,343
Humboldt Park,23,Multifamily,Tierra Linda Apts.,1757 N. Drake Ave.,60647,773-276-5338,LUCHA,3,,,,,,,,,,
Douglas,35,Senior,Pioneer Gardens Supportive Living,3800 S. King Dr.,60653,773-420-4100,Pioneer Gardens Senior Housing,120,1179441.35819138,1879836.39865849,41.8255559976,-87.6171784181,"{'latitude': '41.8255559976', 'longitude': '-87.6171784181', 'human_address': '{""address"": """", ""city"": """", ""state"": """", ""zip"": """"}'}",12,9,1,4301,222
Edgewater,77,Multifamily,Winthrop Apts.,6214 N. Winthrop Ave.,60660,773-477-7070,Hunter Properties,108,1167688.70860106,1941496.36814315,41.9950154576,-87.6585160357,"{'latitude': '41.9950154576', 'longitude': '-87.6585160357', 'human_address': '{""address"": """", ""city"": """", ""state"": """", ""zip"": """"}'}",40,16,76,4451,45
Oakland,36,Multifamily,Lakefront Phase II,4130 S. Oakenwald Ave.,60653,773-548-8795,"Urban Property Advisors, LLC",6,1184448.12897262,1877628.13862618,41.8193803898,-87.5988793227,"{'latitude': '41.8193803898', 'longitude': '-87.5988793227', 'human_address': '{""address"": """", ""city"": """", ""state"": """", ""zip"": """"}'}",1,10,2,4301,220
Austin,25,Senior HUD 202,Enola A. Dew Senior Apts.,4623 W. Gladys Ave.,60644,773-287-2972,"Prairie Management & Development, Inc.",60,1145481.11141751,1897910.0621115,41.8758617765,-87.7413139552,"{'latitude': '41.8758617765', 'longitude': '-87.7413139552', 'human_address': '{""address"": """", ""city"": """", ""state"": """", ""zip"": """"}'}",36,14,26,22216,69
North Lawndale,29,Multifamily,Park Douglas,1220 S. Talman Ave.,60608,773-893-4800,Interstate Realty Management Co.,10,1158851.58703145,1894355.40733023,41.865843892,-87.6923196475,"{'latitude': '41.865843892', 'longitude': '-87.6923196475', 'human_address': '{""address"": """", ""city"": """", ""state"": """", ""zip"": """"}'}",11,23,30,14920,16
Irving Park,16,Senior,Senior Residence at Kedzie,4054 N. Kedzie Ave.,60618,773-381-7400,G&A Management,51,1154285.68709254,1927005.6427548,41.9555313337,-87.7082078565,"{'latitude': '41.9555313337', 'longitude': '-87.7082078565', 'human_address': '{""address"": """", ""city"": """", ""state"": """", ""zip"": """"}'}",2,20,16,21538,23
Woodlawn,42,Multifamily,WECAN,6450 S. Stony Island Ave.,60637,773-288-3000,WECAN,117,1187957.59645308,1862318.63705917,41.7772869881,-87.5864933515,"{'latitude': '41.7772869881', 'longitude': '-87.5864933515', 'human_address': '{""address"": """", ""city"": """", ""state"": """", ""zip"": """"}'}",32,33,9,22260,134
Grand Boulevard,38,Multifamily,Shops & Lofts at 47,747 E. 47th St.,60653,855-618-4959,The Community Builders Inc.,72,1182241.94581458,1873977.25668576,41.8094135532,-87.6070855618,"{'latitude': '41.8094135532', 'longitude': '-87.6070855618', 'human_address': '{""address"": """", ""city"": """", ""state"": """", ""zip"": """"}'}",1,10,4,21192,165
South Lawndale,30,Multifamily,Resurrection Homes,2243 S. Central Park Ave.,60623,312-248-8355,The Resurrection Project,2,1152765.05949378,1888679.58859143,41.8503913261,-87.714813899,"{'latitude': '41.8503913261', 'longitude': '-87.714813899', 'human_address': '{""address"": """", ""city"": """", ""state"": """", ""zip"": """"}'}",14,28,32,21569,755
West Town,24,ARO,1938 W. North Ave.,1938 W. North Ave.,60622,312-423-5508,Dream Town Realty,2,,,,,,,,,,
North Lawndale,29,Multifamily,Renaissance Place Apts.,3128 W. Douglas Blvd.,60623,773-762-3389,Lawndale Christian Residential Svcs.,11,1155600.25970312,1893326.91992638,41.8630876114,-87.7042831894,"{'latitude': '41.8630876114', 'longitude': '-87.7042831894', 'human_address': '{""address"": """", ""city"": """", ""state"": """", ""zip"": """"}'}",36,14,30,21569,132
Riverdale,54,Senior,Concordia Apts.,13037 S. Daniel Dr.,60627,773-995-5200,"DRE, Inc.",75,1180294.27389282,1818758.3719629,41.6579312533,-87.6159174009,"{'latitude': '41.6579312533', 'longitude': '-87.6159174009', 'human_address': '{""address"": """", ""city"": """", ""state"": """", ""zip"": """"}'}",30,43,51,4460,9
Douglas,35,ARO,Unity Hall,3138-40 S. Indiana Ave.,60616,312-929-2608,TRB properties,2,1178081.30364492,1884060.02112515,41.8371769457,-87.6220397684,"{'latitude': '41.8371769457', 'longitude': '-87.6220397684', 'human_address': '{""address"": """", ""city"": """", ""state"": """", ""zip"": """"}'}",12,9,1,21194,25
Edgewater,77,ARO,Glenlake LLC,1544 W. Glenlake Ave.,60660,773-404-9904,TMG Management,3,,,,,,,,,,
Lower West Side,31,Multifamily,Casa Guanajuato,1313 W. 19th St.,60608,312-666-1323,The Resurrection Project,6,1167849.04843383,1890829.4987634,41.8559793927,-87.6593910822,"{'latitude': '41.8559793927', 'longitude': '-87.6593910822', 'human_address': '{""address"": """", ""city"": """", ""state"": """", ""zip"": """"}'}",8,26,33,14920,365
Logan Square,22,ARO,Noca Blu,2328-48 N. California Ave.,60647,707-483-8708,Pinnacle Living,14,1157275.91771058,1915411.86791901,41.9236568473,-87.6975312257,"{'latitude': '41.9236568473', 'longitude': '-87.6975312257', 'human_address': '{""address"": """", ""city"": """", ""state"": """", ""zip"": """"}'}",15,41,23,22535,322
Logan Square,22,Multifamily,Tierra Linda Apts.,1834-36 N. Sawyer Ave.,60647,773-276-5338,LUCHA,6,,,,,,,,,,
South Shore,43,Senior,Rainbow's End,7538 S. Kingston Ave.,60649,773-768-5402,"Urban Property Advisors, LLC",84,1194467.27997328,1855300.56071102,41.7578712724,-87.5628598349,"{'latitude': '41.7578712724', 'longitude': '-87.5628598349', 'human_address': '{""address"": """", ""city"": """", ""state"": """", ""zip"": """"}'}",43,37,39,22538,245
Austin,25,Multifamily,Rebecca Walker Complex,5565-71 W. Quincy Ave.,60644,773-261-1550,Affordable Property Management Specialist,12,1139234.67986753,1898405.58439766,41.8773374951,-87.7642368505,"{'latitude': '41.8773374951', 'longitude': '-87.7642368505', 'human_address': '{""address"": """", ""city"": """", ""state"": """", ""zip"": """"}'}",52,7,26,22216,68
Washington Park,40,Multifamily,St. Edmund's Oasis,6143-51 S. Indiana Ave.,60637,773-493-2411,St. Edmund's Redevelopment Corp.,14,1178697.32194564,1864156.91005342,41.782547068,-87.6203852293,"{'latitude': '41.782547068', 'longitude': '-87.6203852293', 'human_address': '{""address"": """", ""city"": """", ""state"": """", ""zip"": """"}'}",53,4,7,22260,404
Humboldt Park,23,Supportive/Veterans,Hope Manor Apts.,3053 W. Franklin Blvd.,60612,773-475-6703,Volunteers of America Illinois,50,1155690.80062211,1903132.15330145,41.8899923467,-87.7036867659,"{'latitude': '41.8899923467', 'longitude': '-87.7036867659', 'human_address': '{""address"": """", ""city"": """", ""state"": """", ""zip"": """"}'}",41,46,24,21184,177
Uptown,3,Multifamily,Malden Arms Apts.,4727 N. Malden St.,60640,773-334-2164,Mercy Housing,41,1166646.83772236,1931640.34509817,41.967992713,-87.6626324087,"{'latitude': '41.967992713', 'longitude': '-87.6626324087', 'human_address': '{""address"": """", ""city"": """", ""state"": """", ""zip"": """"}'}",37,39,31,22616,611
Washington Park,40,Multifamily,St. Edmund's Manor,5947 S. Indiana Ave.,60653,773-548-8924,St. Edmund's Manor Ltd.,24,1178662.05637765,1865432.91595102,41.7860493567,-87.6204757369,"{'latitude': '41.7860493567', 'longitude': '-87.6204757369', 'human_address': '{""address"": """", ""city"": """", ""state"": """", ""zip"": """"}'}",53,4,7,22260,164
Chatham,44,Supportive Housing,Karibuni Place,8200 S. Ellis Ave.,60619,773-873-0708,Heartland Housing,72,1184284.1534667,1850796.89437228,41.7457569581,-87.6003199107,"{'latitude': '41.7457569581', 'longitude': '-87.6003199107', 'human_address': '{""address"": """", ""city"": """", ""state"": """", ""zip"": """"}'}",9,35,40,21546,141
Uptown,3,Multifamily,Uptown Preservation Apts.,4431 N. Clifton Ave.,60640,773-286-5400,Leasing & Management Co. Inc.,18,1167869.51148089,1929704.26399314,41.9626536881,-87.6581928459,"{'latitude': '41.9626536881', 'longitude': '-87.6581928459', 'human_address': '{""address"": """", ""city"": """", ""state"": """", ""zip"": """"}'}",37,39,31,22616,241
Lakeview,6,Senior,Renaissance St. Luke Greenview Place,1501 W. Melrose St.,60657,773-525-1501,"RRG Development, Inc.",155,1165704.84803739,1921625.29387064,41.9405311557,-87.6663826053,"{'latitude': '41.9405311557', 'longitude': '-87.6663826053', 'human_address': '{""address"": """", ""city"": """", ""state"": """", ""zip"": """"}'}",38,25,57,4449,678
Austin,25,Senior,Senior Suites of Austin,335 N. Menard Ave.,60644,773-378-0333,Senior Lifestyle Corp.,84,1137686.37664547,1901819.13056976,41.8867327472,-87.7698395847,"{'latitude': '41.8867327472', 'longitude': '-87.7698395847', 'human_address': '{""address"": """", ""city"": """", ""state"": """", ""zip"": """"}'}",52,7,26,22216,618
Englewood,68,Supportive Housing,Englewood Apts.,901 W. 63rd Street,60621,773-994-3199,Mercy Housing,45,1171373.66149583,1863023.36778862,41.7795999913,-87.6472689598,"{'latitude': '41.7795999913', 'longitude': '-87.6472689598', 'human_address': '{""address"": """", ""city"": """", ""state"": """", ""zip"": """"}'}",19,2,66,21559,436
Logan Square,22,ARO,2400 Cortland,2404-14 W. Cortland St.,60647,312-489-1600,Laramar Group,2,1159990.63504139,1912594.26688295,41.9158694795,-87.6876342671,"{'latitude': '41.9158694795', 'longitude': '-87.6876342671', 'human_address': '{""address"": """", ""city"": """", ""state"": """", ""zip"": """"}'}",24,41,23,22535,180
West Ridge,2,ARO,"5822 North Western, LLC",5822 N. Western Ave.,60659,773-572-2755,Chicago Apartment Finders,2,1159227.2251011,1938700.5085265,41.9875222634,-87.6897187055,"{'latitude': '41.9875222634', 'longitude': '-87.6897187055', 'human_address': '{""address"": """", ""city"": """", ""state"": """", ""zip"": """"}'}",46,24,20,4450,15
Rogers Park,1,Senior,Wayne Senior Housing,6928 N. Wayne Ave.,60626,773-274-0177,CIG Management,119,1165843.89836178,1946058.5134415,42.0075737709,-87.6651711448,"{'latitude': '42.0075737709', 'longitude': '-87.6651711448', 'human_address': '{""address"": """", ""city"": """", ""state"": """", ""zip"": """"}'}",3,5,10,21853,66
Humboldt Park,23,Multifamily,Tierra Linda Apts.,1649-51 N. Drake Ave.,60647,773-276-5338,LUCHA,6,,,,,,,,,,
Douglas,35,Multifamily,Park Boulevard IIB,3633 S. State St.,60609,773-548-8792,"Urban Property Advisors, LLC",12,1176929.88786903,1880943.18557502,41.8286501893,-87.6263588794,"{'latitude': '41.8286501893', 'longitude': '-87.6263588794', 'human_address': '{""address"": """", ""city"": """", ""state"": """", ""zip"": """"}'}",12,9,1,14924,446
North Center,5,ARO,1911-21 W. Irving Park Rd.,1911-21 W. Irving Park Rd.,60613,312-285-3749,Campell Street Asset Management Inc.,2,1162826.37086233,1926537.70811314,41.9540720487,-87.6768236931,"{'latitude': '41.9540720487', 'longitude': '-87.6768236931', 'human_address': '{""address"": """", ""city"": """", ""state"": """", ""zip"": """"}'}",13,18,46,21186,644
Near West Side,28,Senior,Roosevelt Place,1401 W. Roosevelt Road,60608,312-733-2436,"East Lake Management Group, Inc.",181,1167191.39600074,1894769.79701917,41.866806049,-87.6616918421,"{'latitude': '41.866806049', 'longitude': '-87.6616918421', 'human_address': '{""address"": """", ""city"": """", ""state"": """", ""zip"": """"}'}",48,23,29,14920,96
Grand Boulevard,38,Multifamily,Cornerstone Apts.,633 E. 50th St.,60615,312-577-5555,The Community Builders Inc.,7,1181425.62409216,1871964.80121416,41.8039101011,-87.6101417643,"{'latitude': '41.8039101011', 'longitude': '-87.6101417643', 'human_address': '{""address"": """", ""city"": """", ""state"": """", ""zip"": """"}'}",1,10,4,21192,165
Washington Park,40,Supportive/Kinship Families,Coppin House,325-43 E. 55th Place,60637,773-752-2331,Interfaith Housing Corp.,28,1179276.07749895,1868251.46045241,41.7937697184,-87.6181384856,"{'latitude': '41.7937697184', 'longitude': '-87.6181384856', 'human_address': '{""address"": """", ""city"": """", ""state"": """", ""zip"": """"}'}",53,4,7,22260,402
Grand Boulevard,38,Multifamily,Legends South - Hansberry Square,4034 S. State St.,60609,773-548-8800,Interstate Realty Management Co.,181,1176907.63581022,1878122.62317409,41.8209108342,-87.6265256539,"{'latitude': '41.8209108342', 'longitude': '-87.6265256539', 'human_address': '{""address"": """", ""city"": """", ""state"": """", ""zip"": """"}'}",12,9,4,14924,414
Lower West Side,31,ARO,Woodwork Lofts,1414-48 W. 21st St.,60608,312-576-7392,Stellar Performance Inc.,10,1167176.94068693,1890229.83862937,41.8543483216,-87.6618752556,"{'latitude': '41.8543483216', 'longitude': '-87.6618752556', 'human_address': '{""address"": """", ""city"": """", ""state"": """", ""zip"": """"}'}",8,26,33,14920,365
Near North Side,8,ARO,Atrium at Old Town Park,300 W. Hill St.,60610,312-642-8707,Omni Group,41,1174106.10359573,1907721.57347326,41.9021952433,-87.6359209164,"{'latitude': '41.9021952433', 'longitude': '-87.6359209164', 'human_address': '{""address"": """", ""city"": """", ""state"": """", ""zip"": """"}'}",41,46,37,14926,148
Grand Boulevard,38,Multifamily,Hearts United II-The Quincy (scattered sites),701-27 E. 43rd St.,60653,773-924-2100,Bonheur Realty Services Corp.,81,1181681.40066803,1876615.50549655,41.8166660946,-87.6090599647,"{'latitude': '41.8166660946', 'longitude': '-87.6090599647', 'human_address': '{""address"": """", ""city"": """", ""state"": """", ""zip"": """"}'}",1,10,4,4301,161
Washington Park,40,Multifamily,St. Edmund's Oasis,215 E. 61st St.,60637,773-493-2411,St. Edmund's Redevelopment Corp.,5,1178814.519628,1864578.62491886,41.7837016281,-87.6199427242,"{'latitude': '41.7837016281', 'longitude': '-87.6199427242', 'human_address': '{""address"": """", ""city"": """", ""state"": """", ""zip"": """"}'}",53,4,7,22260,404
Roseland,49,Senior,Roseland Ridge Senior Apts.,10400-30 S. Michigan Ave.,60628,773-548-8301,Neighborhood Housing Services,124,1178859.46478643,1836023.49073876,41.7053419518,-87.6206450334,"{'latitude': '41.7053419518', 'longitude': '-87.6206450334', 'human_address': '{""address"": """", ""city"": """", ""state"": """", ""zip"": """"}'}",30,43,45,21861,236
Douglas,35,Multifamily,Park Boulevard IIA,3612 S. State St.,60609,773-548-8792,"Urban Property Advisors, LLC",6,1176848.8921292,1880973.88335737,41.8287362552,-87.6266551179,"{'latitude': '41.8287362552', 'longitude': '-87.6266551179', 'human_address': '{""address"": """", ""city"": """", ""state"": """", ""zip"": """"}'}",12,9,1,14924,353
Oakland,36,Multifamily,"Oakwood Shrs 1A, 1B, 2A, 2B1 (scattered sites)",3859 S. Vincennes Ave.,60653,773-373-1300,The Community Builders,534,1180730.09575241,1879250.69262958,41.8239192007,-87.6124684434,"{'latitude': '41.8239192007', 'longitude': '-87.6124684434', 'human_address': '{""address"": """", ""city"": """", ""state"": """", ""zip"": """"}'}",1,10,2,4301,582
Belmont Cragin,19,Senior,Senior Suites of Kelvyn Park,2715 N. Cicero Ave.,60639,773-252-0333,Senior Lifestyle Corp.,85,1143963.7949966,1917674.64689742,41.9301265688,-87.7463885389,"{'latitude': '41.9301265688', 'longitude': '-87.7463885389', 'human_address': '{""address"": """", ""city"": """", ""state"": """", ""zip"": """"}'}",7,17,19,22615,305
North Lawndale,29,Multifamily,Dr. King Apts.,1550 S. Hamlin Ave.,60623,773-776-7233,Lawndale Christian Residential Svcs.,45,1151263.62345472,1891891.93010818,41.8592359223,-87.720240298,"{'latitude': '41.8592359223', 'longitude': '-87.720240298', 'human_address': '{""address"": """", ""city"": """", ""state"": """", ""zip"": """"}'}",36,14,30,21569,33
Lakeview,6,ARO,Clarkview Apts.,3228 N. Clark St.,60657,773-562-6149,Glascott Realty,2,1169778.21100716,1921699.27186513,41.9406462133,-87.6514095081,"{'latitude': '41.9406462133', 'longitude': '-87.6514095081', 'human_address': '{""address"": """", ""city"": """", ""state"": """", ""zip"": """"}'}",38,25,57,4449,731
Uptown,3,ARO,4420 N. Sheridan Apts.,4420 N. Sheridan Road,60640,312-342-9655,Quest Chicago,1,,,,,,,,,,
West Town,24,Multifamily,La Estancia,2753 W. Division St.,60622,773-227-6332,Bickerdike Redevelopment Corp.,59,1157605.97946191,1907820.48062404,41.902818751,-87.6965255554,"{'latitude': '41.902818751', 'longitude': '-87.6965255554', 'human_address': '{""address"": """", ""city"": """", ""state"": """", ""zip"": """"}'}",10,49,25,21560,543
Logan Square,22,Multifamily,1879 N. Milwaukee,1879 N. Milwaukee Ave.,60647,773-697-5276,Peak Properties,2,,,,,,,,,,
East Garfield Park,27,Multifamily,Homan Square Apartments Phase I,750 S. Homan Ave.,60624,773-722-7320,Realty & Mortgage Co.,50,1153790.48476092,1896268.99094944,41.8711971734,-87.7108484249,"{'latitude': '41.8711971734', 'longitude': '-87.7108484249', 'human_address': '{""address"": """", ""city"": """", ""state"": """", ""zip"": """"}'}",36,14,28,21572,685
Humboldt Park,23,Supportive/Males 18-24yrs.,Solid Ground Supportive Housing Program,3507 W. North Ave.,60647,773-276-4900,"La Casa Norte, Inc.",35,1152641.11537222,1910367.06344281,41.9099064976,-87.7146950394,"{'latitude': '41.9099064976', 'longitude': '-87.7146950394', 'human_address': '{""address"": """", ""city"": """", ""state"": """", ""zip"": """"}'}",10,49,24,22535,422
West Town,24,ARO,1237 N. Milwaukee Ave.Owner LLC,1241 N. Milwaukee Ave.,60622,312-883-7331,CIM Group,6,1165423.81232186,1908434.93069578,41.9043420044,-87.667791761,"{'latitude': '41.9043420044', 'longitude': '-87.667791761', 'human_address': '{""address"": """", ""city"": """", ""state"": """", ""zip"": """"}'}",24,41,25,21560,482
Logan Square,22,Multifamily,Zapata Apts.,3734 W. Cortland St.,60647,773-227-6332,Bickerdike Apartments,30,1151016.2570625,1912402.3566704,41.9155235348,-87.720610728,"{'latitude': '41.9155235348', 'longitude': '-87.720610728', 'human_address': '{""address"": """", ""city"": """", ""state"": """", ""zip"": """"}'}",10,49,23,22535,388
Humboldt Park,23,Multifamily,Nelson Mandela Apts.,3108 W. Franklin Blvd.,60624,773-227-6332,Bickerdike Apts.,6,1155507.65051345,1903207.94670113,41.890204017,-87.7043573374,"{'latitude': '41.890204017', 'longitude': '-87.7043573374', 'human_address': '{""address"": """", ""city"": """", ""state"": """", ""zip"": """"}'}",41,46,24,21184,177
Woodlawn,42,Multifamily,65th Street Apts.,848-58 E. 65th St.,60637,773-684-2056,"Urban Property Advisors, LLC",6,1183196.23965709,1862140.11489317,41.7769092523,-87.603953777,"{'latitude': '41.7769092523', 'longitude': '-87.603953777', 'human_address': '{""address"": """", ""city"": """", ""state"": """", ""zip"": """"}'}",53,4,9,22260,347
Avondale,21,ARO,The Field's Lofts,4000 W. Diversey Ave.,60639,773-327-6146,33 Realty,12,,,,,,,,,,
Auburn Gresham,71,Senior,Auburn Commons,1626 W. 87th St.,60620,773-238-0850,"Urban Property Advisors, LLC",72,1166895.23997238,1847057.79550948,41.7358851523,-87.6641427166,"{'latitude': '41.7358851523', 'longitude': '-87.6641427166', 'human_address': '{""address"": """", ""city"": """", ""state"": """", ""zip"": """"}'}",6,13,70,21554,532
Englewood,68,Senior,Sangamon Terrace,6415 S. Sangamon St.,60621,312-234-9400,Evergreen Real Estate Services,34,1171120.28837403,1862217.20541804,41.7773933302,-87.6482214016,"{'latitude': '41.7773933302', 'longitude': '-87.6482214016', 'human_address': '{""address"": """", ""city"": """", ""state"": """", ""zip"": """"}'}",19,2,66,21559,436
Oakland,36,Senior,Oakwood Shores Terrace,3755 S. Cottage Grove Ave.,60653,773-373-1300,"The Community Builders, Inc.",148,1181955.52013662,1880134.93150733,41.826317314,-87.6079454471,"{'latitude': '41.826317314', 'longitude': '-87.6079454471', 'human_address': '{""address"": """", ""city"": """", ""state"": """", ""zip"": """"}'}",1,10,2,4301,221
Humboldt Park,23,Multifamily,Rosa Parks Apts.,3215 W. Huron St.,60624,773-227-6332,Bickerdike Apts.,6,1154724.08594761,1904442.81077501,41.8936083276,-87.7072018666,"{'latitude': '41.8936083276', 'longitude': '-87.7072018666', 'human_address': '{""address"": """", ""city"": """", ""state"": """", ""zip"": """"}'}",41,46,24,21572,177
East Garfield Park,27,Multifamily,Homan Square Apartments Phase VI,3609 W. Arthington St.,60624,773-722-7320,Realty & Mortgage Co.,52,1152417.1780591,1895758.86874347,41.8698245594,-87.7159038458,"{'latitude': '41.8698245594', 'longitude': '-87.7159038458', 'human_address': '{""address"": """", ""city"": """", ""state"": """", ""zip"": """"}'}",36,14,30,21572,98
West Garfield Park,26,Senior,Midwest Apts.,6 N. Hamlin Blvd.,60624,773-265-0323,Holsten Management Corp.,276,1151025.52582272,1899809.61951159,41.8809676236,-87.7209069325,"{'latitude': '41.8809676236', 'longitude': '-87.7209069325', 'human_address': '{""address"": """", ""city"": """", ""state"": """", ""zip"": """"}'}",11,23,27,21572,658
Near West Side,28,Multifamily,St. Andrew's Court,50 N. Hoyne Ave.,60612,312-226-7620,St. Andrew's Court LP,15,1162359.52633492,1900563.44456826,41.8828067022,-87.6792681084,"{'latitude': '41.8828067022', 'longitude': '-87.6792681084', 'human_address': '{""address"": """", ""city"": """", ""state"": """", ""zip"": """"}'}",48,46,29,21184,37
New City,61,Senior,New City Supportive Living,4707 S. Marshfield Ave.,60609,773-376-1223,BMA Management Ltd.,101,1166174.27531442,1873464.5181182,41.8083640191,-87.666033435,"{'latitude': '41.8083640191', 'longitude': '-87.666033435', 'human_address': '{""address"": """", ""city"": """", ""state"": """", ""zip"": """"}'}",53,4,59,14924,740
Montclare,18,ARO,Harlem & Wrightwood,2601-19 N. Harlem Ave.,60707,312-671-0777,NOAH Properties,2,1127689.87294364,1916489.61525647,41.9271648255,-87.8062190443,"{'latitude': '41.9271648255', 'longitude': '-87.8062190443', 'human_address': '{""address"": """", ""city"": """", ""state"": """", ""zip"": """"}'}",39,7,18,4454,136
North Lawndale,29,Multifamily,Park Doulglas,1345 S. Fairfield Ave.,60608,773-893-4800,Interstate Realty Management Co.,17,1158291.04749663,1893459.95516573,41.8633981467,-87.6944018945,"{'latitude': '41.8633981467', 'longitude': '-87.6944018945', 'human_address': '{""address"": """", ""city"": """", ""state"": """", ""zip"": """"}'}",11,23,30,14920,16
West Ridge,2,Senior,G & A Senior Residences at Ravenswood,1818 W. Peterson Ave.,60660,773-381-7400,Eastgate Village Senior Corp.,89,1162949.47194798,1939941.18931285,41.9908491577,-87.6759930884,"{'latitude': '41.9908491577', 'longitude': '-87.6759930884', 'human_address': '{""address"": """", ""city"": """", ""state"": """", ""zip"": """"}'}",46,24,20,4451,43
Uptown,3,ARO,Somerset Place Apts.,5009 N. Sheridan Road,60640,317-596-2168,Zidan Management Group,16,1168763.55917347,1933706.92116403,41.9736177254,-87.6547892431,"{'latitude': '41.9736177254', 'longitude': '-87.6547892431', 'human_address': '{""address"": """", ""city"": """", ""state"": """", ""zip"": """"}'}",40,16,31,22616,635
Grand Boulevard,38,Multifamily,Geneva Gables,4420-24 S. Michigan Ave.,60653,773-924-7700,Tri-Mart Management Co.,65,1177858.68569568,1875634.19717979,41.8140608614,-87.6231122243,"{'latitude': '41.8140608614', 'longitude': '-87.6231122243', 'human_address': '{""address"": """", ""city"": """", ""state"": """", ""zip"": """"}'}",12,9,4,4301,393
Near North Side,8,Multifamily,Parkside of Old Town IIB,459 W. Division St.,60622,312=944-8500,Holsten Real Estate Dev. Corp.,94,1172865.27076405,1908241.23651266,41.9036488171,-87.6404632193,"{'latitude': '41.9036488171', 'longitude': '-87.6404632193', 'human_address': '{""address"": """", ""city"": """", ""state"": """", ""zip"": """"}'}",41,46,37,14926,148
Norwood Park,10,Senior,Senior Suites of Norwood Park,5700 N. Harlem Ave.,60631,888-339-2315,Senior Lifestyle,84,1127328.8153755,1937441.87283571,41.9846662832,-87.8070730079,"{'latitude': '41.9846662832', 'longitude': '-87.8070730079', 'human_address': '{""address"": """", ""city"": """", ""state"": """", ""zip"": """"}'}",34,29,36,22243,733
Jefferson Park,11,Senior,Senior Suites of Jefferson Park,5400 N. Northwest Hwy.,60630,773-775-7333,Senior Lifestyle Corp.,73,1136226.97129509,1935211.18542146,41.9783903918,-87.7743995653,"{'latitude': '41.9783903918', 'longitude': '-87.7743995653', 'human_address': '{""address"": """", ""city"": """", ""state"": """", ""zip"": """"}'}",20,50,11,21869,693
Oakland,36,Multifamily,Lakefront Phase II,1120 E. Bowen Ave.,60653,773-548-8795,"Urban Property Advisors, LLC",6,1184352.4695753,1877438.0400388,41.8188609893,-87.5992361922,"{'latitude': '41.8188609893', 'longitude': '-87.5992361922', 'human_address': '{""address"": """", ""city"": """", ""state"": """", ""zip"": """"}'}",1,10,2,4301,220
Roseland,49,Supportive Housing,Wentworth Commons,11045 S. Wentworth Ave.,60628,773-568-7804,Mercy Housing Lakefront,50,1176951.4016152,1831516.01589723,41.6930159121,-87.6277673462,"{'latitude': '41.6930159121', 'longitude': '-87.6277673462', 'human_address': '{""address"": """", ""city"": """", ""state"": """", ""zip"": """"}'}",45,22,45,21861,524
West Town,24,ARO,Bucktown Gateway,1667 N. Western Ave.,60647,773-398-5785,Bucktown Gateway,1,,,,,,,,,,
Chicago Lawn,66,Senior,Churchview Supportive Assisted Living,2626 W. 63rd St.,60629,773-471-4444,Greater Southwest Dev. Corp.,86,1159807.02751173,1862817.68973373,41.7792809902,-87.6896794864,"{'latitude': '41.7792809902', 'longitude': '-87.6896794864', 'human_address': '{""address"": """", ""city"": """", ""state"": """", ""zip"": """"}'}",44,2,64,21867,111
Logan Square,22,Multifamily,Zapata Apts.,3230 W. Armitage Ave,60647,773-227-6332,Bickerdike Apartments,100,1154370.98451523,1913144.87969827,41.9174946519,-87.7082658078,"{'latitude': '41.9174946519', 'longitude': '-87.7082658078', 'human_address': '{""address"": """", ""city"": """", ""state"": """", ""zip"": """"}'}",15,49,23,22535,321
North Lawndale,29,Supportive Housing,Independence Apts.,927 S. Indepenednece Blvd.,60624,773-549-8300,Realty & Mortgage Co.,58,,,,,,,,,,
Hyde Park,41,Multifamily,Hyde Park Apts.,5330 S. Harper Ave.,60615,773-955-2610,"DRE, Inc.",36,1187148.23399175,1870068.25073405,41.7985717841,-87.5892145402,"{'latitude': '41.7985717841', 'longitude': '-87.5892145402', 'human_address': '{""address"": """", ""city"": """", ""state"": """", ""zip"": """"}'}",1,33,8,21192,500
Brighton Park,58,Multifamily,El Zócalo,3246 W. 47th St.,60632,312-870-4747,H&J Real Estate Management,30,1155315.53818384,1873325.09823632,41.8082058904,-87.7058647387,"{'latitude': '41.8082058904', 'longitude': '-87.7058647387', 'human_address': '{""address"": """", ""city"": """", ""state"": """", ""zip"": """"}'}",49,8,55,22248,640
Dunning,17,Senior,Autumn Green at Wright Campus,4239 N. Oak Park Ave.,60634,773-202-3388,Senior Lifestyle Corp.,129,1129981.01832919,1927628.48364357,41.9576922115,-87.7975440334,"{'latitude': '41.9576922115', 'longitude': '-87.7975440334', 'human_address': '{""address"": """", ""city"": """", ""state"": """", ""zip"": """"}'}",25,19,17,22254,442
West Town,24,ARO,945 Western,945 N. Western Ave.,60622,773-278-8078,Wicker Park Apartments Inc.,2,1160270.73931956,1906410.57235504,41.8988951503,-87.6867764252,"{'latitude': '41.8988951503', 'longitude': '-87.6867764252', 'human_address': '{""address"": """", ""city"": """", ""state"": """", ""zip"": """"}'}",16,41,25,21560,541
Lower West Side,31,Multifamily,Casa Puebla,2014 S. Racine Ave.,60608,312-666-1323,The Resurrection Project,63,1168646.29658184,1890365.99095515,41.8546902787,-87.6564782084,"{'latitude': '41.8546902787', 'longitude': '-87.6564782084', 'human_address': '{""address"": """", ""city"": """", ""state"": """", ""zip"": """"}'}",8,26,33,14920,365
Logan Square,22,Multfamily,Tierra Linda Apts.,1858 N. Spaulding Ave.,60647,773-276-5338,LUCHA,3,,,,,,,,,,
Austin,25,Senior HUD 202,Elois McCoy Village Apts.,4650 W. Van Buren St.,60644,773-626-5320,"Prairie Management & Development, Inc.",60,1145250.30767835,1897655.19476588,41.875166755,-87.7421678378,"{'latitude': '41.875166755', 'longitude': '-87.7421678378', 'human_address': '{""address"": """", ""city"": """", ""state"": """", ""zip"": """"}'}",36,14,26,22216,69
Woodlawn,42,Multifamily,The Grant at Woodlawn Pk Phase I,6227-29 S. Cottage Grove Ave.,60637,312-283-0030,Preservation Housing Management LLC,67,1182676.84689494,1863775.1466971,41.7814080037,-87.6058071228,"{'latitude': '41.7814080037', 'longitude': '-87.6058071228', 'human_address': '{""address"": """", ""city"": """", ""state"": """", ""zip"": """"}'}",53,4,9,22260,470
North Lawndale,29,Multifamily,Park Douglas,1310-14 S. Washtenaw Ave.,60608,773-893-4800,Interstate Realty Management Co.,10,1158535.3447374,1893803.5607362,41.8643360428,-87.6934956949,"{'latitude': '41.8643360428', 'longitude': '-87.6934956949', 'human_address': '{""address"": """", ""city"": """", ""state"": """", ""zip"": """"}'}",11,23,30,14920,16
West Englewood,67,Multifamily,Clara's Village,2115 W. 63rd St,60636,773-434-4929,Interfaith Housing Corp.,13,1163257.20279961,1862800.70664039,41.7791628235,-87.6770311971,"{'latitude': '41.7791628235', 'longitude': '-87.6770311971', 'human_address': '{""address"": """", ""city"": """", ""state"": """", ""zip"": """"}'}",44,2,65,22257,282
Portage Park,15,Senior,The Kilpatrick Renaissance,4655 W. Burteau Ave.,60641,773-283-4655,The Renaissance Cos.,98,1144211.76733991,1927249.55419532,41.9563963216,-87.7452358895,"{'latitude': '41.9563963216', 'longitude': '-87.7452358895', 'human_address': '{""address"": """", ""city"": """", ""state"": """", ""zip"": """"}'}",20,50,15,22618,139
Near North Side,8,Multifamily,Parkside of Old Town Phase IIA,544 W. Oak St.,60610,312-640-6032,Holsten Real Estate Dev. Corp.,111,1172196.03200951,1907097.53314717,41.9005252379,-87.6429552753,"{'latitude': '41.9005252379', 'longitude': '-87.6429552753', 'human_address': '{""address"": """", ""city"": """", ""state"": """", ""zip"": """"}'}",41,46,37,14926,148
South Lawndale,30,Multifamily,Casa Sor Juana,2700 S. Drake Ave.,60623,312-850-1935,The Resurrection Project,29,1153098.30218281,1885797.72782443,41.842476558,-87.713667149,"{'latitude': '41.842476558', 'longitude': '-87.713667149', 'human_address': '{""address"": """", ""city"": """", ""state"": """", ""zip"": """"}'}",14,28,32,21569,312
Greater Grand Crossing,69,Multifamily,Englewood Gardens,6956 S. Vincennes Ave.,60621,773-994-4830,"East Lake Management Group, Inc.",24,1176891.26825181,1858664.43366951,41.7675160252,-87.6271720535,"{'latitude': '41.7675160252', 'longitude': '-87.6271720535', 'human_address': '{""address"": """", ""city"": """", ""state"": """", ""zip"": """"}'}",31,32,67,21559,513
Near West Side,28,Multifamily,City Gardens,320 S. Maplewood Ave.,60612,844-842-2779,Interstate Realty Management Co.,76,1159392.5066662,1898418.37010203,41.8769819546,-87.6902221443,"{'latitude': '41.8769819546', 'longitude': '-87.6902221443', 'human_address': '{""address"": """", ""city"": """", ""state"": """", ""zip"": """"}'}",48,46,29,21184,785
Near West Side,28,ARO,The Mason,180 N. Ada St.,60607,312-809-0240,Marquette Management Inc.,26,,,,,,,,,,
Auburn Gresham,71,Multifamily,Stone Terrace,8440 S. Parnell Ave.,60620,773-651-9234,East Lake Management & Development Corp.,56,1174067.01615288,1848682.07381399,41.740186358,-87.6378199128,"{'latitude': '41.740186358', 'longitude': '-87.6378199128', 'human_address': '{""address"": """", ""city"": """", ""state"": """", ""zip"": """"}'}",18,13,70,21554,529
Oakland,36,Multifamily,Lakefront Phase II,4116 S. Oakenwald Ave.,60653,773-548-8795,"Urban Property Advisors, LLC",3,1184335.35688206,1877697.18288526,41.8195724964,-87.5992908459,"{'latitude': '41.8195724964', 'longitude': '-87.5992908459', 'human_address': '{""address"": """", ""city"": """", ""state"": """", ""zip"": """"}'}",1,10,2,4301,220
Humboldt Park,23,Multifamily,Rosa Parks Apts.,3341 W. Ohio St.,60624,773-227-6332,Bickerdike Apts.,16,1153814.92396768,1903755.65009439,41.8917408493,-87.7105592395,"{'latitude': '41.8917408493', 'longitude': '-87.7105592395', 'human_address': '{""address"": """", ""city"": """", ""state"": """", ""zip"": """"}'}",41,46,24,21572,177
Humboldt Park,23,Multifamily,Nelson Mandela Apts.,505 N. Troy St.,60612,773-227-6332,Bickerdike Apts.,6,1155324.88371286,1903322.6402453,41.8905224214,-87.7050254597,"{'latitude': '41.8905224214', 'longitude': '-87.7050254597', 'human_address': '{""address"": """", ""city"": """", ""state"": """", ""zip"": """"}'}",41,46,24,21184,177
Uptown,3,Senior,Wilson Yard Senior Apts.,1032 W. Montrose Ave,60613,866-227-0438,Holsten Real Estate Dev. Corp.,13,1168438.95915947,1929421.64959164,41.9618658533,-87.6561074284,"{'latitude': '41.9618658533', 'longitude': '-87.6561074284', 'human_address': '{""address"": """", ""city"": """", ""state"": """", ""zip"": """"}'}",37,39,31,22616,241
North Lawndale,29,Multifamily,Park Douglas,1255 S. Fairfield Ave.,60608,773-893-4800,Interstate Realty Management Co.,5,1158274.68324626,1894003.77884424,41.8648907888,-87.69444711,"{'latitude': '41.8648907888', 'longitude': '-87.69444711', 'human_address': '{""address"": """", ""city"": """", ""state"": """", ""zip"": """"}'}",11,23,30,14920,16
Washington Park,40,People with Disabilities,"Brand New Beginnings, Inc.",5801 S. Michigan Ave.,60637,773-955-5780,Harriet Tubman NFP,25,1178188.16376156,1866559.65473616,41.7891520073,-87.6221790762,"{'latitude': '41.7891520073', 'longitude': '-87.6221790762', 'human_address': '{""address"": """", ""city"": """", ""state"": """", ""zip"": """"}'}",53,4,7,22260,403
Garfield Ridge,56,Senior,Midway Pointe Senior Living,5011 W. 47th St.,60638,872-302-4010,Perlmark Realty Management LLC,85,1143675.61265146,1872964.36205315,41.8074412435,-87.748566779,"{'latitude': '41.8074412435', 'longitude': '-87.748566779', 'human_address': '{""address"": """", ""city"": """", ""state"": """", ""zip"": """"}'}",35,28,53,22268,605
Lower West Side,31,Multifamily,Casa Morelos,2015 S. Morgan St.,60608,312-666-1323,The Resurrection Project,4,1170049.33643376,1890417.78410833,41.8548019389,-87.6513269744,"{'latitude': '41.8548019389', 'longitude': '-87.6513269744', 'human_address': '{""address"": """", ""city"": """", ""state"": """", ""zip"": """"}'}",8,26,33,14920,250
West Town,24,ARO,Luxe on Chicago,1838 W. Chicago Ave.,60622,312-424-6225,Fifield Co.,4,1163828.86863114,1905410.00338341,41.8960751868,-87.6737358367,"{'latitude': '41.8960751868', 'longitude': '-87.6737358367', 'human_address': '{""address"": """", ""city"": """", ""state"": """", ""zip"": """"}'}",24,41,25,21560,462
Grand Boulevard,38,Multifamily,Bronzeville Family Apts.,400 E. 41st St.,60653,773-924-2100,Peoples Co-Op Management Service,60,1179638.24834182,1877940.68309984,41.8203495003,-87.6165141095,"{'latitude': '41.8203495003', 'longitude': '-87.6165141095', 'human_address': '{""address"": """", ""city"": """", ""state"": """", ""zip"": """"}'}",12,9,4,4301,625
North Lawndale,29,Multifamily,Park Douglas,2639 W. 12th Pl,60608,773-893-4800,Interstate Realty Management Co.,5,1158801.29809112,1894249.27204366,41.8655536764,-87.6925071703,"{'latitude': '41.8655536764', 'longitude': '-87.6925071703', 'human_address': '{""address"": """", ""city"": """", ""state"": """", ""zip"": """"}'}",11,23,30,14920,16
Woodlawn,42,Multifamily,65th Street Apts.,6600 S. Greenwood Ave.,60637,773-684-2056,"Urban Property Advisors, LLC",42,1184316.03789517,1861429.0767049,41.7749319632,-87.5998709117,"{'latitude': '41.7749319632', 'longitude': '-87.5998709117', 'human_address': '{""address"": """", ""city"": """", ""state"": """", ""zip"": """"}'}",32,33,9,22260,27
West Town,24,Multifamily,Borinquen Bella Apts.,"1414,1451 N. Washtenaw Ave.",60622,773-276-5338,LUCHA,23,1158113.71413063,1909378.97804077,41.9070850396,-87.6946179242,"{'latitude': '41.9070850396', 'longitude': '-87.6946179242', 'human_address': '{""address"": """", ""city"": """", ""state"": """", ""zip"": """"}'}",10,41,25,21560,288
South Shore,43,Senior,Senior Suites of South Shore,2355 E. 67th St.,60649,773-324-2333,Senior Lifestyle Corp.,55,1193073.32299015,1860960.16278232,41.7734357917,-87.567783821,"{'latitude': '41.7734357917', 'longitude': '-87.567783821', 'human_address': '{""address"": """", ""city"": """", ""state"": """", ""zip"": """"}'}",32,33,39,22538,134
Woodlawn,42,Multifamily,Trianon Lofts,803 E. 61st St.,60637,773-955-8668,Preservation Housing Management LLC,12,1182659.1180954,1864701.71376933,41.7839509995,-87.6058433794,"{'latitude': '41.7839509995', 'longitude': '-87.6058433794', 'human_address': '{""address"": """", ""city"": """", ""state"": """", ""zip"": """"}'}",53,4,9,22260,470
Humboldt Park,23,Multifamily,Nelson Mandela Apts.,3525 W. Ohio St.,60624,773-227-6332,Bickerdike Apts.,6,1152627.17934622,1903731.70210874,41.891698707,-87.7149219479,"{'latitude': '41.891698707', 'longitude': '-87.7149219479', 'human_address': '{""address"": """", ""city"": """", ""state"": """", ""zip"": """"}'}",41,46,24,21572,584
Douglas,35,Multifamily,South Park Plaza,2600 S. King Dr.,60616,312-674-9210,Woodlawn Comm. Dev. Corp.,134,1179206.47233066,1887158.19586824,41.8456529118,-87.617816391,"{'latitude': '41.8456529118', 'longitude': '-87.617816391', 'human_address': '{""address"": """", ""city"": """", ""state"": """", ""zip"": """"}'}",1,10,1,21194,191
Austin,25,Multifamily,Rebecca Walker Complex,223-9 S. Central Ave.,60644,773-261-1550,Affordable Property Management Specialist,12,1139130.07558624,1898499.87339709,41.8775981392,-87.7646186402,"{'latitude': '41.8775981392', 'longitude': '-87.7646186402', 'human_address': '{""address"": """", ""city"": """", ""state"": """", ""zip"": """"}'}",52,7,26,22216,68
Lincoln Square,4,ARO,Ravenswood Terrace,1801-15 W. Argyle St.,60640,773-444-8733,Kass Management,15,1163292.38201681,1933204.70289035,41.9723567701,-87.6749222533,"{'latitude': '41.9723567701', 'longitude': '-87.6749222533', 'human_address': '{""address"": """", ""city"": """", ""state"": """", ""zip"": """"}'}",13,18,6,22616,106
Lower West Side,31,Multifamily,Casa Colima,1427 W. Cullerton St.,60608,312-666-1323,The Resurrection Project,3,1167051.02171783,1890476.21349957,41.8550270973,-87.6623303609,"{'latitude': '41.8550270973', 'longitude': '-87.6623303609', 'human_address': '{""address"": """", ""city"": """", ""state"": """", ""zip"": """"}'}",8,26,33,14920,365
Englewood,68,Senior,Yale Building,6565 S. Yale Ave.,60621,773-224-7669,Yale Building LLP,140,1175681.09174387,1861260.69103322,41.7746676247,-87.6315301982,"{'latitude': '41.7746676247', 'longitude': '-87.6315301982', 'human_address': '{""address"": """", ""city"": """", ""state"": """", ""zip"": """"}'}",53,4,66,21559,435
East Garfiled Park,27,Multifamily,Harvest Homes,3512-46 W. Fifth Ave.,60624,312-216-5103,Realty & Mortgage Co.,36,1153024.16159639,1898153.84204896,41.8763846236,-87.7136119356,"{'latitude': '41.8763846236', 'longitude': '-87.7136119356', 'human_address': '{""address"": """", ""city"": """", ""state"": """", ""zip"": """"}'}",11,23,28,21572,783
Logan Square,22,Multifamily,Tierra Linda Apts.,1929 N. Drake Ave.,60647,773-276-5338,LUCHA,3,,,,,,,,,,
North Lawndale,29,Multifamily,Park Douglas,2707 W. 12th St.,60808,773-893-4800,Interstate Realty Management Co.,5,1158459.37012223,1894563.61321959,41.8664232575,-87.6937538097,"{'latitude': '41.8664232575', 'longitude': '-87.6937538097', 'human_address': '{""address"": """", ""city"": """", ""state"": """", ""zip"": """"}'}",11,23,30,14920,16
Washington Park,40,Multifamily,St. Edmund's Oasis,300-10 E. 61st St.,60637,773-493-2411,St. Edmund's Redevelopment Corp.,12,1179107.39547042,1864667.29567815,41.7839382764,-87.6188662443,"{'latitude': '41.7839382764', 'longitude': '-87.6188662443', 'human_address': '{""address"": """", ""city"": """", ""state"": """", ""zip"": """"}'}",53,4,7,22260,404
Grand Boulevard,38,Multifamily,Legends South - Coleman Place,223 E. 41st St.,60653,773-268-0202,Interstate Realty Management Co.,118,1178573.51974712,1877831.6285598,41.820074554,-87.6204232972,"{'latitude': '41.820074554', 'longitude': '-87.6204232972', 'human_address': '{""address"": """", ""city"": """", ""state"": """", ""zip"": """"}'}",12,9,4,4301,163
Humboldt Park,23,Supportive Housing,Humboldt Park Residences,1152 N. Christiana Ave.,60647,773-276-5338 ext. 225,LUCHA,69,1153731.44110721,1907707.14811704,41.9025857989,-87.7107605283,"{'latitude': '41.9025857989', 'longitude': '-87.7107605283', 'human_address': '{""address"": """", ""city"": """", ""state"": """", ""zip"": """"}'}",10,49,24,4299,150
North Lawndale,29,Multifamily,Dicksons Estates Apts.,1129 S. Sacramento Ave.,60612,773-638-0386,Dickson Estates Apartments,48,1156574.00873721,1894894.5102467,41.8673696101,-87.7006662254,"{'latitude': '41.8673696101', 'longitude': '-87.7006662254', 'human_address': '{""address"": """", ""city"": """", ""state"": """", ""zip"": """"}'}",11,23,30,21184,35
Near West Side,28,Multifamily,Westhaven Park Phase IIA,2237 W. Maypole Ave.,60612,312-455-0009,Interstate Realty Management Co.,92,1161390.34745167,1900920.96640233,41.8838079875,-87.6828170157,"{'latitude': '41.8838079875', 'longitude': '-87.6828170157', 'human_address': '{""address"": """", ""city"": """", ""state"": """", ""zip"": """"}'}",48,46,29,21184,37
South Chicago,46,Supportive Housing,Bettendorf Place SRO,8425 S. Saginaw Ave.,60617,773-359-4902,Alexian Brothers Bonaventure House,112,1195337.91888013,1849509.65051407,41.7419591238,-87.5598598952,"{'latitude': '41.7419591238', 'longitude': '-87.5598598952', 'human_address': '{""address"": """", ""city"": """", ""state"": """", ""zip"": """"}'}",43,37,42,21202,226
Uptown,3,Multifamily,Uptown Preservation Apts.,927 W. Wilson Ave.,60640,773-286-5400,Leasing & Management Co. Inc.,18,1169143.77263049,1930693.074083,41.9653393681,-87.653479057,"{'latitude': '41.9653393681', 'longitude': '-87.653479057', 'human_address': '{""address"": """", ""city"": """", ""state"": """", ""zip"": """"}'}",37,39,31,22616,20
Humboldt Park,23,Multifamily,Rosa Parks Apts.,521 N. St. Louis Ave.,60624,773-227-6332,Bickerdike Apts.,6,1152991.42864546,1903446.15546262,41.8909079269,-87.7135917923,"{'latitude': '41.8909079269', 'longitude': '-87.7135917923', 'human_address': '{""address"": """", ""city"": """", ""state"": """", ""zip"": """"}'}",41,46,24,21572,584
Washington Heights,73,Senior,Senior Suites of Washington Heights,848 W. 103rd St.,60643,773-233-1333,Senior Lifestyle Corp.,82,1172263.72668949,1836577.477182,41.7070094274,-87.6447816603,"{'latitude': '41.7070094274', 'longitude': '-87.6447816603', 'human_address': '{""address"": """", ""city"": """", ""state"": """", ""zip"": """"}'}",45,22,72,22212,594
Grand Boulevard,38,Multifamily,Paul G. Stewart Phase III Tower,401 E. Bowen Ave.,60653,312-924-2100,Paul G. Stewart Assoc.,180,1179658.64737422,1877532.34194995,41.8192285127,-87.6164517753,"{'latitude': '41.8192285127', 'longitude': '-87.6164517753', 'human_address': '{""address"": """", ""city"": """", ""state"": """", ""zip"": """"}'}",12,9,4,4301,625
Pullman,50,Senior,Pullman Suites,15 E. 112th Place,60628,773-840-3993,Triangle & Assoc.,60,1178428.44188676,1830343.03041337,41.6897637422,-87.6223950849,"{'latitude': '41.6897637422', 'longitude': '-87.6223950849', 'human_address': '{""address"": """", ""city"": """", ""state"": """", ""zip"": """"}'}",30,43,45,21861,253
Near North Side,8,Multfamily,Parkside of Old Town IIB,1151 N. Cleveland Ave.,60622,312-944-8500,Holsten Real Estate Dev. Corp.,12,1172709.40772697,1907999.78747232,41.902989721,-87.6410428925,"{'latitude': '41.902989721', 'longitude': '-87.6410428925', 'human_address': '{""address"": """", ""city"": """", ""state"": """", ""zip"": """"}'}",41,46,37,14926,148
Near South Side,33,Multifamily,Hilliard Homes Phase I,2030 S. State St.,60616,312-225-7610,Holsten Real Estate Dev. Corp.,170,1176604.64229673,1890373.50349659,41.854535033,-87.6272677388,"{'latitude': '41.854535033', 'longitude': '-87.6272677388', 'human_address': '{""address"": """", ""city"": """", ""state"": """", ""zip"": """"}'}",12,9,34,21194,330
Washington Park,40,Multifamily,St. Edmund's Commons,110 E. 60th St.,60637,773-420-3328,St. Edmund's Redevelopment Corp.,54,1178315.99392656,1865303.08525837,41.7857009548,-87.6217485015,"{'latitude': '41.7857009548', 'longitude': '-87.6217485015', 'human_address': '{""address"": """", ""city"": """", ""state"": """", ""zip"": """"}'}",53,4,7,22260,164
Near West Side,28,Senior,Loomis Court,1314 W. 15th St.,60608,312-850-4128,CHA,68,1167767.39496695,1892902.58116516,41.8616698673,-87.659631083,"{'latitude': '41.8616698673', 'longitude': '-87.659631083', 'human_address': '{""address"": """", ""city"": """", ""state"": """", ""zip"": """"}'}",48,26,29,14920,96
Grand Boulevard,38,Multifamily,Cornerstone Apts.,636 E. 50th St.,60615,312-577-5555,The Community Builders Inc.,5,1181481.55432879,1872046.50954937,41.804133024,-87.6099341196,"{'latitude': '41.804133024', 'longitude': '-87.6099341196', 'human_address': '{""address"": """", ""city"": """", ""state"": """", ""zip"": """"}'}",1,10,4,21192,165
